OBJECTID,CMPLNT_NUM,CMPLNT_FR_DT,CMPLNT_FR_TM,CMPLNT_TO_DT,CMPLNT_TO_TM,ADDR_PCT_CD,RPT_DT,KY_CD,OFNS_DESC,PD_CD,PD_DESC,CRM_ATPT_CPTD_CD,LAW_CAT_CD,BORO_NM,LOC_OF_OCCUR_DESC,PREM_TYP_DESC,JURIS_DESC,PARKS_NM,HADEVELOPT,X_COORD_CD,Y_COORD_CD,Latitude,Longitude,Lat_Lon,the_geom,the_geom_webmercator,facname,addressnum,streetname,address,city,zipcode,factype,facsubgrp,facgroup,facdomain,servarea,opname,opabbrev,optype,overagency,overabbrev,overlevel,capacity,captype,boro,bin,bbl,xcoord,ycoord,cd,nta2010,nta2020,council,ct2010,ct2020,borocode,schooldist,policeprct,datasource,uid
1,261214832,2023-01-01,22:55:00,2023-01-01,23:00:00,120,2023-01-01,105,ROBBERY,386,"ROBBERY,PERSONAL ELECTRONIC DEVICE",COMPLETED,FELONY,STATEN ISLAND,FRONT OF,STREET,N.Y. POLICE DEPT,(null),(null),963713,173753,40.643566,-74.074001,"(40.643566, -74.074001)",,,,,,,,,,,,,,,,,,,,,,,,,,,,,,,,,,,,,
2,261233859,2023-01-02,13:20:00,2023-01-02,13:33:00,121,2023-01-02,105,ROBBERY,384,"ROBBERY,POCKETBOOK/CARRIED BAG",COMPLETED,FELONY,STATEN ISLAND,INSIDE,STREET,N.Y. POLICE DEPT,(null),(null),939463,171015,40.635961,-74.161365,"(40.635961, -74.161365)",,,,,,,,,,,,,,,,,,,,,,,,,,,,,,,,,,,,,
3,261233841,2023-01-02,8:00:00,2023-01-02,09:15:00,120,2023-01-02,105,ROBBERY,389,"ROBBERY,DWELLING",COMPLETED,FELONY,STATEN ISLAND,INSIDE,RESIDENCE - APT. HOUSE,N.Y. POLICE DEPT,(null),(null),956959,173761,40.643569,-74.098338,"(40.643569, -74.098338)",,,,,,,,,,,,,,,,,,,,,,,,,,,,,,,,,,,,,
4,261261343,2023-01-03,1:14:00,2023-01-03,01:16:00,121,2023-01-03,105,ROBBERY,386,"ROBBERY,PERSONAL ELECTRONIC DEVICE",COMPLETED,FELONY,STATEN ISLAND,FRONT OF,STREET,N.Y. POLICE DEPT,(null),(null),944563,168983,40.630408,-74.142977,"(40.630408, -74.142977)",,,,,,,,,,,,,,,,,,,,,,,,,,,,,,,,,,,,,
5,261347872,2023-01-04,14:00:00,2023-01-04,14:02:00,120,2023-01-04,105,ROBBERY,377,"ROBBERY,BODEGA/CONVENIENCE STORE",COMPLETED,FELONY,STATEN ISLAND,INSIDE,GROCERY/BODEGA,N.Y. POLICE DEPT,(null),(null),962976,169008,40.630539,-74.076641,"(40.630539, -74.076641)",,,,,,,,,,,,,,,,,,,,,,,,,,,,,,,,,,,,,
6,261434927,2023-01-05,18:30:00,2023-01-05,19:05:00,120,2023-01-05,105,ROBBERY,387,"ROBBERY,CLOTHING",COMPLETED,FELONY,STATEN ISLAND,(null),STREET,N.Y. POLICE DEPT,(null),(null),949981,171426,40.63713502,-74.12347311,"(40.63713502, -74.12347311)",,,,,,,,,,,,,,,,,,,,,,,,,,,,,,,,,,,,,
7,261431397,2023-01-05,16:50:00,2023-01-05,17:00:00,120,2023-01-05,105,ROBBERY,396,"ROBBERY,BEGIN AS SHOPLIFTING",COMPLETED,FELONY,STATEN ISLAND,INSIDE,SHOE,N.Y. POLICE DEPT,(null),(null),963019,173910,40.643996,-74.076502,"(40.643996, -74.076502)",,,,,,,,,,,,,,,,,,,,,,,,,,,,,,,,,,,,,
8,261466791,2023-01-06,1:10:00,2023-01-06,01:15:00,123,2023-01-06,105,ROBBERY,380,"ROBBERY,CAR JACKING",ATTEMPTED,FELONY,STATEN ISLAND,FRONT OF,STREET,N.Y. POLICE DEPT,(null),(null),924509,130267,40.524027,-74.214885,"(40.524027, -74.214885)",,,,,,,,,,,,,,,,,,,,,,,,,,,,,,,,,,,,,
9,261493026,2023-01-06,15:30:00,2023-01-06,15:35:00,120,2023-01-06,105,ROBBERY,387,"ROBBERY,CLOTHING",COMPLETED,FELONY,STATEN ISLAND,FRONT OF,STREET,N.Y. POLICE DEPT,(null),(null),960287,170614,40.634941,-74.086335,"(40.634941, -74.086335)",,,,,,,,,,,,,,,,,,,,,,,,,,,,,,,,,,,,,
10,261548611,2023-01-07,18:20:00,2023-01-07,18:35:00,120,2023-01-07,105,ROBBERY,397,"ROBBERY,OPEN AREA UNCLASSIFIED",ATTEMPTED,FELONY,STATEN ISLAND,OPPOSITE OF,STREET,N.Y. POLICE DEPT,(null),(null),948941,170199,40.633764,-74.127213,"(40.633764, -74.127213)",,,,,,,,,,,,,,,,,,,,,,,,,,,,,,,,,,,,,
11,261586618,2023-01-08,21:10:00,2023-01-08,21:28:00,120,2023-01-08,105,ROBBERY,388,"ROBBERY,RESIDENTIAL COMMON AREA",COMPLETED,FELONY,STATEN ISLAND,INSIDE,RESIDENCE - PUBLIC HOUSING,N.Y. HOUSING POLICE,(null),(null),951319,171305,40.63681,-74.11865,"(40.63681, -74.11865)",,,,,,,,,,,,,,,,,,,,,,,,,,,,,,,,,,,,,
12,261612375,2023-01-09,12:05:00,2023-01-09,12:10:00,120,2023-01-09,105,ROBBERY,361,"ROBBERY,BANK",COMPLETED,FELONY,STATEN ISLAND,INSIDE,BANK,N.Y. POLICE DEPT,(null),(null),962835,167738,40.627054,-74.077144,"(40.627054, -74.077144)",,,,,,,,,,,,,,,,,,,,,,,,,,,,,,,,,,,,,
13,261676947,2023-01-10,17:00:00,2023-01-10,18:30:00,120,2023-01-10,105,ROBBERY,387,"ROBBERY,CLOTHING",COMPLETED,FELONY,STATEN ISLAND,FRONT OF,STREET,N.Y. POLICE DEPT,(null),(null),961588,173294,40.6423,-74.081657,"(40.6423, -74.081657)",,,,,,,,,,,,,,,,,,,,,,,,,,,,,,,,,,,,,
14,261661952,2023-01-10,11:00:00,2023-01-10,11:10:00,120,2023-01-10,105,ROBBERY,389,"ROBBERY,DWELLING",COMPLETED,FELONY,STATEN ISLAND,INSIDE,RESIDENCE - PUBLIC HOUSING,N.Y. HOUSING POLICE,(null),(null),959780,175051,40.647119,-74.088178,"(40.647119, -74.088178)",,,,,,,,,,,,,,,,,,,,,,,,,,,,,,,,,,,,,
15,261775688H1,2023-01-11,19:30:00,,(null),120,2023-01-11,101,MURDER & NON-NEGL. MANSLAUGHTER,,(null),COMPLETED,FELONY,STATEN ISLAND,OUTSIDE,(null),N.Y. POLICE DEPT,(null),(null),950793,170009,40.63325,-74.120539,"(40.63325, -74.120539)",,,,,,,,,,,,,,,,,,,,,,,,,,,,,,,,,,,,,
16,261860831,2023-01-12,17:25:00,2023-01-12,17:35:00,120,2023-01-13,105,ROBBERY,397,"ROBBERY,OPEN AREA UNCLASSIFIED",COMPLETED,FELONY,STATEN ISLAND,(null),STREET,N.Y. POLICE DEPT,(null),(null),961243,172897,40.64120901,-74.08290054,"(40.64120901, -74.08290054)",,,,,,,,,,,,,,,,,,,,,,,,,,,,,,,,,,,,,
17,261852145,2023-01-13,8:45:00,2023-01-13,09:15:00,120,2023-01-13,105,ROBBERY,386,"ROBBERY,PERSONAL ELECTRONIC DEVICE",COMPLETED,FELONY,STATEN ISLAND,(null),OPEN AREAS (OPEN LOTS),N.Y. POLICE DEPT,(null),(null),961149,173129,40.64184556,-74.08324005,"(40.64184556, -74.08324005)",,,,,,,,,,,,,,,,,,,,,,,,,,,,,,,,,,,,,
18,261843553,2023-01-13,0:30:00,2023-01-13,01:30:00,120,2023-01-13,105,ROBBERY,390,"ROBBERY,HOME INVASION",COMPLETED,FELONY,STATEN ISLAND,INSIDE,RESIDENCE-HOUSE,N.Y. POLICE DEPT,(null),(null),966190,160182,40.606321,-74.065039,"(40.606321, -74.065039)",,,,,,,,,,,,,,,,,,,,,,,,,,,,,,,,,,,,,
19,261926303,2023-01-14,23:00:00,2023-01-14,23:05:00,120,2023-01-14,105,ROBBERY,389,"ROBBERY,DWELLING",COMPLETED,FELONY,STATEN ISLAND,INSIDE,RESIDENCE - APT. HOUSE,N.Y. POLICE DEPT,(null),(null),961360,160963,40.608453,-74.082436,"(40.608453, -74.082436)",,,,,,,,,,,,,,,,,,,,,,,,,,,,,,,,,,,,,
20,261895324,2023-01-14,2:00:00,2023-01-14,02:00:00,122,2023-01-14,105,ROBBERY,399,"ROBBERY,COMMERCIAL UNCLASSIFIED",COMPLETED,FELONY,STATEN ISLAND,(null),FAST FOOD,N.Y. POLICE DEPT,(null),(null),953756,147132,40.5704668,-74.10976191,"(40.5704668, -74.10976191)",,,,,,,,,,,,,,,,,,,,,,,,,,,,,,,,,,,,,
21,261958745,2023-01-15,16:00:00,2023-01-15,19:15:00,120,2023-01-15,104,RAPE,153,RAPE 3,COMPLETED,FELONY,STATEN ISLAND,INSIDE,RESIDENCE-HOUSE,N.Y. POLICE DEPT,(null),(null),962873,174172,40.64472094,-74.07703272,"(40.6447209438691, -74.0770327198983)",,,,,,,,,,,,,,,,,,,,,,,,,,,,,,,,,,,,,
22,262170680,2023-01-16,18:20:00,2023-01-16,19:00:00,121,2023-01-16,105,ROBBERY,396,"ROBBERY,BEGIN AS SHOPLIFTING",COMPLETED,FELONY,STATEN ISLAND,INSIDE,DEPARTMENT STORE,N.Y. POLICE DEPT,(null),(null),938881,167697,40.626851,-74.163438,"(40.626851, -74.163438)",,,,,,,,,,,,,,,,,,,,,,,,,,,,,,,,,,,,,
23,262015386,2023-01-17,4:20:00,2023-01-17,04:35:00,120,2023-01-17,105,ROBBERY,397,"ROBBERY,OPEN AREA UNCLASSIFIED",COMPLETED,FELONY,STATEN ISLAND,FRONT OF,STREET,N.Y. POLICE DEPT,(null),(null),963024,171638,40.63776,-74.076476,"(40.63776, -74.076476)",,,,,,,,,,,,,,,,,,,,,,,,,,,,,,,,,,,,,
24,262115666,2023-01-18,19:05:00,2023-01-18,19:15:00,120,2023-01-18,105,ROBBERY,386,"ROBBERY,PERSONAL ELECTRONIC DEVICE",COMPLETED,FELONY,STATEN ISLAND,INSIDE,RESIDENCE-HOUSE,N.Y. POLICE DEPT,(null),(null),959914,171400,40.637099,-74.087683,"(40.637099, -74.087683)",,,,,,,,,,,,,,,,,,,,,,,,,,,,,,,,,,,,,
25,262122253,2023-01-18,18:30:00,2023-01-18,18:40:00,120,2023-01-18,105,ROBBERY,399,"ROBBERY,COMMERCIAL UNCLASSIFIED",COMPLETED,FELONY,STATEN ISLAND,INSIDE,GROCERY/BODEGA,N.Y. POLICE DEPT,(null),(null),962202,168543,40.629262,-74.07943,"(40.629262, -74.07943)",,,,,,,,,,,,,,,,,,,,,,,,,,,,,,,,,,,,,
26,262254386,2023-01-20,19:45:00,2023-01-20,20:00:00,122,2023-01-20,105,ROBBERY,390,"ROBBERY,HOME INVASION",COMPLETED,FELONY,STATEN ISLAND,INSIDE,RESIDENCE-HOUSE,N.Y. POLICE DEPT,(null),(null),958402,147554,40.571641,-74.09304,"(40.571641, -74.09304)",,,,,,,,,,,,,,,,,,,,,,,,,,,,,,,,,,,,,
27,262235449,2023-01-20,9:05:00,2023-01-20,10:05:00,120,2023-01-20,105,ROBBERY,394,"ROBBERY,LICENSED FOR HIRE VEHICLE",COMPLETED,FELONY,STATEN ISLAND,FRONT OF,RESIDENCE - PUBLIC HOUSING,N.Y. HOUSING POLICE,(null),(null),959780,175051,40.647119,-74.088178,"(40.647119, -74.088178)",,,,,,,,,,,,,,,,,,,,,,,,,,,,,,,,,,,,,
28,262242179,2023-01-20,16:00:00,2023-01-20,16:30:00,120,2023-01-20,105,ROBBERY,390,"ROBBERY,HOME INVASION",COMPLETED,FELONY,STATEN ISLAND,INSIDE,RESIDENCE - APT. HOUSE,N.Y. POLICE DEPT,(null),(null),957113,172336,40.639659,-74.097776,"(40.639659, -74.097776)",,,,,,,,,,,,,,,,,,,,,,,,,,,,,,,,,,,,,
29,262325373,2023-01-22,19:20:00,2023-01-22,19:30:00,122,2023-01-22,105,ROBBERY,377,"ROBBERY,BODEGA/CONVENIENCE STORE",COMPLETED,FELONY,STATEN ISLAND,INSIDE,GROCERY/BODEGA,N.Y. POLICE DEPT,(null),(null),942484,135131,40.537482,-74.15026,"(40.537482, -74.15026)",,,,,,,,,,,,,,,,,,,,,,,,,,,,,,,,,,,,,
30,262426205,2023-01-24,18:00:00,2023-01-24,18:30:00,121,2023-01-24,105,ROBBERY,386,"ROBBERY,PERSONAL ELECTRONIC DEVICE",COMPLETED,FELONY,STATEN ISLAND,(null),STREET,N.Y. POLICE DEPT,(null),(null),943774,170504,40.63457814,-74.14583171,"(40.63457814, -74.14583171)",,,,,,,,,,,,,,,,,,,,,,,,,,,,,,,,,,,,,
31,262494382,2023-01-25,18:10:00,2023-01-25,18:15:00,120,2023-01-25,105,ROBBERY,386,"ROBBERY,PERSONAL ELECTRONIC DEVICE",COMPLETED,FELONY,STATEN ISLAND,INSIDE,(null),N.Y. POLICE DEPT,(null),(null),963180,173627,40.64322,-74.075921,"(40.64322, -74.075921)",,,,,,,,,,,,,,,,,,,,,,,,,,,,,,,,,,,,,
32,262506354,2023-01-25,22:55:00,2023-01-25,22:58:00,122,2023-01-26,105,ROBBERY,377,"ROBBERY,BODEGA/CONVENIENCE STORE",COMPLETED,FELONY,STATEN ISLAND,INSIDE,GROCERY/BODEGA,N.Y. POLICE DEPT,(null),(null),965438,154859,40.591709,-74.067734,"(40.591709, -74.067734)",,,,,,,,,,,,,,,,,,,,,,,,,,,,,,,,,,,,,
33,262528533,2023-01-26,4:25:00,2023-01-26,04:34:00,121,2023-01-26,104,RAPE,157,RAPE 1,COMPLETED,FELONY,STATEN ISLAND,INSIDE,RESIDENCE-HOUSE,N.Y. POLICE DEPT,(null),(null),942822,166353,40.62318838,-74.14923769,"(40.6231883776008, -74.1492376947323)",,,,,,,,,,,,,,,,,,,,,,,,,,,,,,,,,,,,,
34,262591167,2023-01-27,4:30:00,2023-01-27,04:35:00,120,2023-01-27,105,ROBBERY,386,"ROBBERY,PERSONAL ELECTRONIC DEVICE",COMPLETED,FELONY,STATEN ISLAND,INSIDE,RESIDENCE - PUBLIC HOUSING,N.Y. HOUSING POLICE,(null),(null),951456,170457,40.634484,-74.118152,"(40.634484, -74.118152)",,,,,,,,,,,,,,,,,,,,,,,,,,,,,,,,,,,,,
35,262661514,2023-01-28,23:45:00,2023-01-28,23:50:00,120,2023-01-29,105,ROBBERY,386,"ROBBERY,PERSONAL ELECTRONIC DEVICE",COMPLETED,FELONY,STATEN ISLAND,(null),STREET,N.Y. POLICE DEPT,(null),(null),955316,162922,40.61381238,-74.10421438,"(40.61381238, -74.10421438)",,,,,,,,,,,,,,,,,,,,,,,,,,,,,,,,,,,,,
36,262649424,2023-01-28,14:30:00,2023-01-28,14:40:00,120,2023-01-28,105,ROBBERY,396,"ROBBERY,BEGIN AS SHOPLIFTING",COMPLETED,FELONY,STATEN ISLAND,FRONT OF,CHAIN STORE,N.Y. POLICE DEPT,(null),(null),960701,162881,40.613717,-74.084818,"(40.613717, -74.084818)",,,,,,,,,,,,,,,,,,,,,,,,,,,,,,,,,,,,,
37,262685009,2023-01-29,15:55:00,2023-01-29,16:10:00,121,2023-01-29,105,ROBBERY,396,"ROBBERY,BEGIN AS SHOPLIFTING",COMPLETED,FELONY,STATEN ISLAND,INSIDE,DEPARTMENT STORE,N.Y. POLICE DEPT,(null),(null),937123,149970,40.578185,-74.169648,"(40.578185, -74.169648)",,,,,,,,,,,,,,,,,,,,,,,,,,,,,,,,,,,,,
38,262720135,2023-01-30,15:30:00,2023-01-30,15:50:00,122,2023-01-30,105,ROBBERY,388,"ROBBERY,RESIDENTIAL COMMON AREA",COMPLETED,FELONY,STATEN ISLAND,INSIDE,RESIDENCE - PUBLIC HOUSING,N.Y. HOUSING POLICE,(null),(null),950640,160663,40.607597,-74.121045,"(40.607597, -74.121045)",,,,,,,,,,,,,,,,,,,,,,,,,,,,,,,,,,,,,
39,262791789,2023-01-31,3:00:00,2023-01-31,05:00:00,121,2023-01-31,105,ROBBERY,389,"ROBBERY,DWELLING",COMPLETED,FELONY,STATEN ISLAND,FRONT OF,RESIDENCE-HOUSE,N.Y. POLICE DEPT,(null),(null),941047,167852,40.627286,-74.155636,"(40.627286, -74.155636)",,,,,,,,,,,,,,,,,,,,,,,,,,,,,,,,,,,,,
40,262780841,2023-01-31,19:25:00,,(null),122,2023-01-31,105,ROBBERY,399,"ROBBERY,COMMERCIAL UNCLASSIFIED",COMPLETED,FELONY,STATEN ISLAND,INSIDE,STORE UNCLASSIFIED,N.Y. POLICE DEPT,(null),(null),966053,157279,40.598352,-74.065527,"(40.598352, -74.065527)",,,,,,,,,,,,,,,,,,,,,,,,,,,,,,,,,,,,,
41,262901739,2023-02-02,7:50:00,2023-02-02,08:00:00,121,2023-02-02,105,ROBBERY,390,"ROBBERY,HOME INVASION",COMPLETED,FELONY,STATEN ISLAND,INSIDE,RESIDENCE-HOUSE,N.Y. POLICE DEPT,(null),(null),944696,171830,40.638224,-74.142515,"(40.638224, -74.142515)",,,,,,,,,,,,,,,,,,,,,,,,,,,,,,,,,,,,,
42,262984245,2023-02-03,14:25:00,2023-02-03,14:29:00,120,2023-02-03,105,ROBBERY,384,"ROBBERY,POCKETBOOK/CARRIED BAG",COMPLETED,FELONY,STATEN ISLAND,REAR OF,OTHER,N.Y. POLICE DEPT,(null),(null),963019,173910,40.643996,-74.076502,"(40.643996, -74.076502)",,,,,,,,,,,,,,,,,,,,,,,,,,,,,,,,,,,,,
43,262954688,2023-02-03,0:00:00,2023-02-03,00:15:00,120,2023-02-03,105,ROBBERY,396,"ROBBERY,BEGIN AS SHOPLIFTING",COMPLETED,FELONY,STATEN ISLAND,INSIDE,GROCERY/BODEGA,N.Y. POLICE DEPT,(null),(null),964813,162295,40.612118,-74.070003,"(40.612118, -74.070003)",,,,,,,,,,,,,,,,,,,,,,,,,,,,,,,,,,,,,
44,264354937,2023-02-04,20:00:00,2023-02-04,23:59:00,123,2023-02-28,104,RAPE,153,RAPE 3,COMPLETED,FELONY,STATEN ISLAND,INSIDE,RESIDENCE-HOUSE,N.Y. POLICE DEPT,(null),(null),914803,125922,40.51203825,-74.24975495,"(40.5120382535219, -74.2497549524458)",,,,,,,,,,,,,,,,,,,,,,,,,,,,,,,,,,,,,
45,263111966,2023-02-06,10:50:00,2023-02-06,11:43:00,121,2023-02-06,105,ROBBERY,397,"ROBBERY,OPEN AREA UNCLASSIFIED",COMPLETED,FELONY,STATEN ISLAND,(null),STREET,N.Y. POLICE DEPT,(null),(null),943774,170504,40.63457814,-74.14583171,"(40.63457814, -74.14583171)",,,,,,,,,,,,,,,,,,,,,,,,,,,,,,,,,,,,,
46,263171455,2023-02-07,13:55:00,2023-02-07,14:17:00,121,2023-02-07,105,ROBBERY,377,"ROBBERY,BODEGA/CONVENIENCE STORE",COMPLETED,FELONY,STATEN ISLAND,INSIDE,GROCERY/BODEGA,N.Y. POLICE DEPT,(null),(null),938881,167697,40.626851,-74.163438,"(40.626851, -74.163438)",,,,,,,,,,,,,,,,,,,,,,,,,,,,,,,,,,,,,
47,263175449,2023-02-07,16:20:00,2023-02-07,16:22:00,122,2023-02-07,105,ROBBERY,390,"ROBBERY,HOME INVASION",COMPLETED,FELONY,STATEN ISLAND,INSIDE,RESIDENCE-HOUSE,N.Y. POLICE DEPT,(null),(null),952838,146501,40.568734,-74.113063,"(40.568734, -74.113063)",,,,,,,,,,,,,,,,,,,,,,,,,,,,,,,,,,,,,
48,263247636,2023-02-08,0:05:00,2023-02-08,00:08:00,120,2023-02-08,105,ROBBERY,397,"ROBBERY,OPEN AREA UNCLASSIFIED",COMPLETED,FELONY,STATEN ISLAND,FRONT OF,RESIDENCE - APT. HOUSE,N.Y. POLICE DEPT,(null),(null),962064,172130,40.639106,-74.079939,"(40.639106, -74.079939)",,,,,,,,,,,,,,,,,,,,,,,,,,,,,,,,,,,,,
49,263401348,2023-02-10,21:30:00,2023-02-10,21:40:00,121,2023-02-10,105,ROBBERY,377,"ROBBERY,BODEGA/CONVENIENCE STORE",COMPLETED,FELONY,STATEN ISLAND,INSIDE,FOOD SUPERMARKET,N.Y. POLICE DEPT,(null),(null),947738,159056,40.603174,-74.131487,"(40.603174, -74.131487)",,,,,,,,,,,,,,,,,,,,,,,,,,,,,,,,,,,,,
50,263528978,2023-02-12,18:40:00,2023-02-12,18:48:00,120,2023-02-12,105,ROBBERY,386,"ROBBERY,PERSONAL ELECTRONIC DEVICE",COMPLETED,FELONY,STATEN ISLAND,FRONT OF,RESIDENCE - PUBLIC HOUSING,N.Y. HOUSING POLICE,(null),(null),959780,175051,40.647119,-74.088178,"(40.647119, -74.088178)",,,,,,,,,,,,,,,,,,,,,,,,,,,,,,,,,,,,,
51,263463032,2023-02-12,5:10:00,2023-02-12,05:15:00,120,2023-02-12,105,ROBBERY,386,"ROBBERY,PERSONAL ELECTRONIC DEVICE",COMPLETED,FELONY,STATEN ISLAND,FRONT OF,STREET,N.Y. POLICE DEPT,(null),(null),962507,171810,40.638231,-74.078342,"(40.638231, -74.078342)",,,,,,,,,,,,,,,,,,,,,,,,,,,,,,,,,,,,,
52,263481553,2023-02-12,7:00:00,2023-02-12,07:15:00,120,2023-02-12,105,ROBBERY,397,"ROBBERY,OPEN AREA UNCLASSIFIED",COMPLETED,FELONY,STATEN ISLAND,OPPOSITE OF,STREET,N.Y. POLICE DEPT,(null),(null),961765,173046,40.641621,-74.081017,"(40.641621, -74.081017)",,,,,,,,,,,,,,,,,,,,,,,,,,,,,,,,,,,,,
53,263649004,2023-02-14,14:05:00,2023-02-14,14:15:00,120,2023-02-15,105,ROBBERY,397,"ROBBERY,OPEN AREA UNCLASSIFIED",COMPLETED,FELONY,STATEN ISLAND,FRONT OF,STREET,N.Y. POLICE DEPT,(null),(null),952391,168499,40.629112,-74.114774,"(40.629112, -74.114774)",,,,,,,,,,,,,,,,,,,,,,,,,,,,,,,,,,,,,
54,263608541,2023-02-14,21:00:00,2023-02-14,21:35:00,120,2023-02-14,105,ROBBERY,386,"ROBBERY,PERSONAL ELECTRONIC DEVICE",COMPLETED,FELONY,STATEN ISLAND,FRONT OF,STREET,N.Y. POLICE DEPT,(null),(null),961394,164734,40.618806,-74.082327,"(40.618806, -74.082327)",,,,,,,,,,,,,,,,,,,,,,,,,,,,,,,,,,,,,
55,263748887,2023-02-16,21:00:00,,(null),123,2023-02-16,105,ROBBERY,380,"ROBBERY,CAR JACKING",ATTEMPTED,FELONY,STATEN ISLAND,FRONT OF,PARKING LOT/GARAGE (PUBLIC),N.Y. POLICE DEPT,(null),(null),918928,129743,40.52255,-74.234952,"(40.52255, -74.234952)",,,,,,,,,,,,,,,,,,,,,,,,,,,,,,,,,,,,,
56,263839261H1,2023-02-16,23:55:00,,(null),120,2023-02-16,101,MURDER & NON-NEGL. MANSLAUGHTER,,(null),COMPLETED,FELONY,STATEN ISLAND,INSIDE,MULTI DWELL - APT BUILD,N.Y. POLICE DEPT,(null),(null),963050,167318,40.625903,-74.07637,"(40.625903, -74.07637)",,,,,,,,,,,,,,,,,,,,,,,,,,,,,,,,,,,,,
57,263809069,2023-02-17,16:40:00,2023-02-17,16:44:00,123,2023-02-17,105,ROBBERY,382,"ROBBERY,NECKCHAIN/JEWELRY",COMPLETED,FELONY,STATEN ISLAND,INSIDE,BEAUTY & NAIL SALON,N.Y. POLICE DEPT,(null),(null),938929,136810,40.542072,-74.16306,"(40.542072, -74.16306)",,,,,,,,,,,,,,,,,,,,,,,,,,,,,,,,,,,,,
58,277448172,2023-02-17,19:00:00,,(null),120,2023-11-13,104,RAPE,157,RAPE 1,COMPLETED,FELONY,STATEN ISLAND,INSIDE,RESIDENCE-HOUSE,N.Y. POLICE DEPT,(null),(null),962873,174172,40.64472094,-74.07703272,"(40.6447209438691, -74.0770327198983)",,,,,,,,,,,,,,,,,,,,,,,,,,,,,,,,,,,,,
59,263762506,2023-02-17,0:08:00,2023-02-17,00:20:00,122,2023-02-17,105,ROBBERY,377,"ROBBERY,BODEGA/CONVENIENCE STORE",COMPLETED,FELONY,STATEN ISLAND,INSIDE,GROCERY/BODEGA,N.Y. POLICE DEPT,(null),(null),966053,157279,40.598352,-74.065527,"(40.598352, -74.065527)",,,,,,,,,,,,,,,,,,,,,,,,,,,,,,,,,,,,,
60,263809067,2023-02-17,14:56:00,2023-02-17,15:00:00,120,2023-02-17,105,ROBBERY,386,"ROBBERY,PERSONAL ELECTRONIC DEVICE",COMPLETED,FELONY,STATEN ISLAND,FRONT OF,FAST FOOD,N.Y. POLICE DEPT,(null),(null),952391,168499,40.629112,-74.114774,"(40.629112, -74.114774)",,,,,,,,,,,,,,,,,,,,,,,,,,,,,,,,,,,,,
61,263859169,2023-02-18,22:50:00,2023-02-18,23:05:00,120,2023-02-18,105,ROBBERY,397,"ROBBERY,OPEN AREA UNCLASSIFIED",COMPLETED,FELONY,STATEN ISLAND,(null),STREET,N.Y. POLICE DEPT,(null),(null),962383,171825,40.63826949,-74.07878934,"(40.63826949, -74.07878934)",,,,,,,,,,,,,,,,,,,,,,,,,,,,,,,,,,,,,
62,263855909,2023-02-18,19:40:00,2023-02-18,19:48:00,121,2023-02-18,105,ROBBERY,396,"ROBBERY,BEGIN AS SHOPLIFTING",COMPLETED,FELONY,STATEN ISLAND,INSIDE,COMMERCIAL BUILDING,N.Y. POLICE DEPT,(null),(null),946498,166992,40.624951,-74.135996,"(40.624951, -74.135996)",,,,,,,,,,,,,,,,,,,,,,,,,,,,,,,,,,,,,
63,263942349,2023-02-18,22:44:00,2023-02-18,23:00:00,120,2023-02-20,105,ROBBERY,389,"ROBBERY,DWELLING",COMPLETED,FELONY,STATEN ISLAND,INSIDE,RESIDENCE - APT. HOUSE,N.Y. POLICE DEPT,(null),(null),961193,163266,40.614774,-74.083046,"(40.614774, -74.083046)",,,,,,,,,,,,,,,,,,,,,,,,,,,,,,,,,,,,,
64,263842792,2023-02-18,12:07:00,2023-02-18,13:00:00,120,2023-02-18,105,ROBBERY,386,"ROBBERY,PERSONAL ELECTRONIC DEVICE",COMPLETED,FELONY,STATEN ISLAND,REAR OF,RESIDENCE - APT. HOUSE,N.Y. POLICE DEPT,(null),(null),961577,163519,40.61547,-74.081663,"(40.61547, -74.081663)",,,,,,,,,,,,,,,,,,,,,,,,,,,,,,,,,,,,,
65,263858933,2023-02-18,20:54:00,2023-02-18,21:04:00,120,2023-02-18,105,ROBBERY,389,"ROBBERY,DWELLING",COMPLETED,FELONY,STATEN ISLAND,INSIDE,RESIDENCE - APT. HOUSE,N.Y. POLICE DEPT,(null),(null),961612,166618,40.623977,-74.081548,"(40.623977, -74.081548)",,,,,,,,,,,,,,,,,,,,,,,,,,,,,,,,,,,,,
66,263882919,2023-02-19,10:37:00,2023-02-19,10:50:00,122,2023-02-19,105,ROBBERY,396,"ROBBERY,BEGIN AS SHOPLIFTING",COMPLETED,FELONY,STATEN ISLAND,INSIDE,CHAIN STORE,N.Y. POLICE DEPT,(null),(null),961759,157377,40.598611,-74.080986,"(40.598611, -74.080986)",,,,,,,,,,,,,,,,,,,,,,,,,,,,,,,,,,,,,
67,267632710H1,2023-02-20,4:07:00,,(null),120,2023-02-20,101,MURDER & NON-NEGL. MANSLAUGHTER,,(null),COMPLETED,FELONY,STATEN ISLAND,INSIDE,MULTI DWELL - APT BUILD,N.Y. POLICE DEPT,(null),(null),960193,163331,40.61495,-74.086649,"(40.61495, -74.086649)",,,,,,,,,,,,,,,,,,,,,,,,,,,,,,,,,,,,,
68,263993697,2023-02-21,23:00:00,2023-02-21,23:05:00,122,2023-02-21,105,ROBBERY,397,"ROBBERY,OPEN AREA UNCLASSIFIED",ATTEMPTED,FELONY,STATEN ISLAND,FRONT OF,STREET,N.Y. POLICE DEPT,(null),(null),958246,158840,40.60262,-74.093645,"(40.60262, -74.093645)",,,,,,,,,,,,,,,,,,,,,,,,,,,,,,,,,,,,,
69,264102912,2023-02-23,10:20:00,2023-02-23,10:25:00,122,2023-02-23,105,ROBBERY,397,"ROBBERY,OPEN AREA UNCLASSIFIED",COMPLETED,FELONY,STATEN ISLAND,FRONT OF,STREET,N.Y. POLICE DEPT,(null),(null),951403,149484,40.576915,-74.118241,"(40.576915, -74.118241)",,,,,,,,,,,,,,,,,,,,,,,,,,,,,,,,,,,,,
70,264185284,2023-02-25,0:10:00,2023-02-25,00:20:00,120,2023-02-25,105,ROBBERY,399,"ROBBERY,COMMERCIAL UNCLASSIFIED",ATTEMPTED,FELONY,STATEN ISLAND,FRONT OF,STREET,N.Y. POLICE DEPT,(null),(null),964047,173812,40.643729,-74.072798,"(40.643729, -74.072798)",,,,,,,,,,,,,,,,,,,,,,,,,,,,,,,,,,,,,
71,264213726,2023-02-25,14:20:00,2023-02-25,14:25:00,122,2023-02-25,105,ROBBERY,380,"ROBBERY,CAR JACKING",COMPLETED,FELONY,STATEN ISLAND,FRONT OF,STREET,N.Y. POLICE DEPT,(null),(null),953809,150554,40.579862,-74.109586,"(40.579862, -74.109586)",,,,,,,,,,,,,,,,,,,,,,,,,,,,,,,,,,,,,
72,264243990,2023-02-26,9:20:00,2023-02-26,09:40:00,120,2023-02-26,104,RAPE,159,"RAPE 1,ATTEMPT",ATTEMPTED,FELONY,STATEN ISLAND,INSIDE,RESIDENCE-HOUSE,N.Y. POLICE DEPT,(null),(null),962873,174172,40.64472094,-74.07703272,"(40.6447209438691, -74.0770327198983)",,,,,,,,,,,,,,,,,,,,,,,,,,,,,,,,,,,,,
73,264404227,2023-03-01,20:30:00,2023-03-01,20:50:00,120,2023-03-01,105,ROBBERY,389,"ROBBERY,DWELLING",COMPLETED,FELONY,STATEN ISLAND,INSIDE,RESIDENCE - APT. HOUSE,N.Y. POLICE DEPT,(null),(null),961826,174435,40.645434,-74.080804,"(40.645434, -74.080804)",,,,,,,,,,,,,,,,,,,,,,,,,,,,,,,,,,,,,
74,264494739,2023-03-03,10:30:00,2023-03-03,10:45:00,120,2023-03-03,105,ROBBERY,397,"ROBBERY,OPEN AREA UNCLASSIFIED",COMPLETED,FELONY,STATEN ISLAND,INSIDE,GROCERY/BODEGA,N.Y. POLICE DEPT,(null),(null),961139,165608,40.621203,-74.083249,"(40.621203, -74.083249)",,,,,,,,,,,,,,,,,,,,,,,,,,,,,,,,,,,,,
75,264561958,2023-03-04,14:30:00,2023-03-04,14:45:00,121,2023-03-04,105,ROBBERY,397,"ROBBERY,OPEN AREA UNCLASSIFIED",COMPLETED,FELONY,STATEN ISLAND,(null),OTHER,N.Y. POLICE DEPT,WILLOWBROOK PARK,(null),945246,159022,40.60306909,-74.14046189,"(40.60306909, -74.14046189)",,,,,,,,,,,,,,,,,,,,,,,,,,,,,,,,,,,,,
76,264641039,2023-03-06,7:10:00,2023-03-06,07:15:00,121,2023-03-06,105,ROBBERY,389,"ROBBERY,DWELLING",COMPLETED,FELONY,STATEN ISLAND,INSIDE,RESIDENCE - APT. HOUSE,N.Y. POLICE DEPT,(null),(null),936721,172119,40.638977,-74.171252,"(40.638977, -74.171252)",,,,,,,,,,,,,,,,,,,,,,,,,,,,,,,,,,,,,
77,269877079H1,2023-03-08,12:01:00,,(null),123,2023-03-08,101,MURDER & NON-NEGL. MANSLAUGHTER,,(null),COMPLETED,FELONY,STATEN ISLAND,INSIDE,PVT HOUSE,N.Y. POLICE DEPT,(null),(null),929462,142767,40.558371,-74.197171,"(40.558371, -74.197171)",,,,,,,,,,,,,,,,,,,,,,,,,,,,,,,,,,,,,
78,264906378,2023-03-10,20:00:00,2023-03-10,20:04:00,120,2023-03-10,105,ROBBERY,390,"ROBBERY,HOME INVASION",COMPLETED,FELONY,STATEN ISLAND,INSIDE,RESIDENCE - APT. HOUSE,N.Y. POLICE DEPT,(null),(null),961320,175255,40.647682,-74.082631,"(40.647682, -74.082631)",,,,,,,,,,,,,,,,,,,,,,,,,,,,,,,,,,,,,
79,264800921,2023-03-10,1:36:00,2023-03-10,01:46:00,120,2023-03-10,105,ROBBERY,386,"ROBBERY,PERSONAL ELECTRONIC DEVICE",COMPLETED,FELONY,STATEN ISLAND,FRONT OF,STREET,N.Y. POLICE DEPT,(null),(null),963024,171638,40.63776,-74.076476,"(40.63776, -74.076476)",,,,,,,,,,,,,,,,,,,,,,,,,,,,,,,,,,,,,
80,265348356,2023-03-11,21:00:00,2023-03-11,22:00:00,122,2023-03-19,104,RAPE,157,RAPE 1,COMPLETED,FELONY,STATEN ISLAND,INSIDE,GROCERY/BODEGA,N.Y. POLICE DEPT,(null),(null),954827,148519,40.57428569,-74.10591441,"(40.5742856881925, -74.1059144051212)",,,,,,,,,,,,,,,,,,,,,,,,,,,,,,,,,,,,,
81,265128292,2023-03-13,23:00:00,2023-03-14,01:30:00,121,2023-03-15,104,RAPE,157,RAPE 1,COMPLETED,FELONY,STATEN ISLAND,INSIDE,RESIDENCE-HOUSE,N.Y. POLICE DEPT,(null),(null),942822,166353,40.62318838,-74.14923769,"(40.6231883776008, -74.1492376947323)",,,,,,,,,,,,,,,,,,,,,,,,,,,,,,,,,,,,,
82,265175832,2023-03-15,18:40:00,2023-03-15,19:10:00,121,2023-03-15,105,ROBBERY,390,"ROBBERY,HOME INVASION",COMPLETED,FELONY,STATEN ISLAND,INSIDE,RESIDENCE-HOUSE,N.Y. POLICE DEPT,(null),(null),940816,169143,40.630831,-74.15648,"(40.630831, -74.15648)",,,,,,,,,,,,,,,,,,,,,,,,,,,,,,,,,,,,,
83,265279100,2023-03-15,10:45:00,2023-03-15,12:00:00,120,2023-03-17,105,ROBBERY,390,"ROBBERY,HOME INVASION",COMPLETED,FELONY,STATEN ISLAND,INSIDE,RESIDENCE - APT. HOUSE,N.Y. POLICE DEPT,(null),(null),961417,164057,40.616946,-74.082242,"(40.616946, -74.082242)",,,,,,,,,,,,,,,,,,,,,,,,,,,,,,,,,,,,,
84,265170630,2023-03-15,18:00:00,2023-03-15,18:10:00,120,2023-03-15,105,ROBBERY,397,"ROBBERY,OPEN AREA UNCLASSIFIED",COMPLETED,FELONY,STATEN ISLAND,FRONT OF,STREET,N.Y. POLICE DEPT,(null),(null),964054,162030,40.611389,-74.072738,"(40.611389, -74.072738)",,,,,,,,,,,,,,,,,,,,,,,,,,,,,,,,,,,,,
85,265235283,2023-03-16,15:00:00,2023-03-16,15:30:00,120,2023-03-16,105,ROBBERY,382,"ROBBERY,NECKCHAIN/JEWELRY",COMPLETED,FELONY,STATEN ISLAND,FRONT OF,STREET,N.Y. POLICE DEPT,(null),(null),959908,161320,40.60943,-74.087667,"(40.60943, -74.087667)",,,,,,,,,,,,,,,,,,,,,,,,,,,,,,,,,,,,,
86,265274236,2023-03-17,4:45:00,2023-03-17,04:50:00,120,2023-03-17,105,ROBBERY,386,"ROBBERY,PERSONAL ELECTRONIC DEVICE",COMPLETED,FELONY,STATEN ISLAND,(null),OTHER,N.Y. POLICE DEPT,(null),(null),961734,164364,40.617789,-74.08110287,"(40.617789, -74.08110287)",,,,,,,,,,,,,,,,,,,,,,,,,,,,,,,,,,,,,
87,265290581,2023-03-18,5:30:00,2023-03-18,05:45:00,121,2023-03-18,105,ROBBERY,394,"ROBBERY,LICENSED FOR HIRE VEHICLE",COMPLETED,FELONY,STATEN ISLAND,FRONT OF,RESIDENCE - PUBLIC HOUSING,N.Y. HOUSING POLICE,(null),(null),938890,170111,40.633478,-74.163424,"(40.633478, -74.163424)",,,,,,,,,,,,,,,,,,,,,,,,,,,,,,,,,,,,,
88,265291275,2023-03-18,4:10:00,2023-03-18,04:31:00,121,2023-03-18,105,ROBBERY,396,"ROBBERY,BEGIN AS SHOPLIFTING",COMPLETED,FELONY,STATEN ISLAND,INSIDE,FOOD SUPERMARKET,N.Y. POLICE DEPT,(null),(null),942827,166373,40.623238,-74.149217,"(40.623238, -74.149217)",,,,,,,,,,,,,,,,,,,,,,,,,,,,,,,,,,,,,
89,265293291,2023-03-18,2:15:00,2023-03-18,02:24:00,120,2023-03-18,105,ROBBERY,389,"ROBBERY,DWELLING",COMPLETED,FELONY,STATEN ISLAND,INSIDE,RESIDENCE - APT. HOUSE,N.Y. POLICE DEPT,(null),(null),960388,164990,40.619505,-74.085952,"(40.619505, -74.085952)",,,,,,,,,,,,,,,,,,,,,,,,,,,,,,,,,,,,,
90,265348484,2023-03-19,20:10:00,2023-03-19,20:20:00,120,2023-03-19,105,ROBBERY,386,"ROBBERY,PERSONAL ELECTRONIC DEVICE",COMPLETED,FELONY,STATEN ISLAND,REAR OF,RESIDENCE - PUBLIC HOUSING,N.Y. HOUSING POLICE,(null),(null),951319,171305,40.63681,-74.11865,"(40.63681, -74.11865)",,,,,,,,,,,,,,,,,,,,,,,,,,,,,,,,,,,,,
91,265381980,2023-03-20,11:30:00,2023-03-20,14:23:00,122,2023-03-20,105,ROBBERY,388,"ROBBERY,RESIDENTIAL COMMON AREA",COMPLETED,FELONY,STATEN ISLAND,INSIDE,RESIDENCE - PUBLIC HOUSING,N.Y. HOUSING POLICE,(null),(null),955641,153484,40.587909,-74.103003,"(40.587909, -74.103003)",,,,,,,,,,,,,,,,,,,,,,,,,,,,,,,,,,,,,
92,265403958,2023-03-21,3:00:00,2023-03-21,03:30:00,120,2023-03-21,104,RAPE,157,RAPE 1,COMPLETED,FELONY,STATEN ISLAND,REAR OF,RESIDENCE - APT. HOUSE,N.Y. POLICE DEPT,(null),(null),962873,174172,40.64472094,-74.07703272,"(40.6447209438691, -74.0770327198983)",,,,,,,,,,,,,,,,,,,,,,,,,,,,,,,,,,,,,
93,265452569,2023-03-22,2:15:00,2023-03-22,02:19:00,121,2023-03-22,105,ROBBERY,394,"ROBBERY,LICENSED FOR HIRE VEHICLE",COMPLETED,FELONY,STATEN ISLAND,FRONT OF,STREET,N.Y. POLICE DEPT,(null),(null),944384,167503,40.626345,-74.143613,"(40.626345, -74.143613)",,,,,,,,,,,,,,,,,,,,,,,,,,,,,,,,,,,,,
94,265489089,2023-03-22,11:35:00,2023-03-22,11:45:00,120,2023-03-22,105,ROBBERY,397,"ROBBERY,OPEN AREA UNCLASSIFIED",COMPLETED,FELONY,STATEN ISLAND,FRONT OF,OTHER,N.Y. POLICE DEPT,(null),(null),962749,173101,40.641774,-74.077471,"(40.641774, -74.077471)",,,,,,,,,,,,,,,,,,,,,,,,,,,,,,,,,,,,,
95,265673021H1,2023-03-25,14:52:00,,(null),120,2023-03-25,101,MURDER & NON-NEGL. MANSLAUGHTER,,(null),COMPLETED,FELONY,STATEN ISLAND,OUTSIDE,MULTI DWELL - APT BUILD,N.Y. POLICE DEPT,(null),(null),961577,163519,40.61547,-74.081663,"(40.61547, -74.081663)",,,,,,,,,,,,,,,,,,,,,,,,,,,,,,,,,,,,,
96,265667019,2023-03-26,3:20:00,,(null),120,2023-03-26,105,ROBBERY,396,"ROBBERY,BEGIN AS SHOPLIFTING",COMPLETED,FELONY,STATEN ISLAND,FRONT OF,GROCERY/BODEGA,N.Y. POLICE DEPT,(null),(null),959527,161249,40.609236,-74.089041,"(40.609236, -74.089041)",,,,,,,,,,,,,,,,,,,,,,,,,,,,,,,,,,,,,
97,265744196,2023-03-26,4:00:00,2023-03-27,04:00:00,120,2023-03-28,104,RAPE,157,RAPE 1,COMPLETED,FELONY,STATEN ISLAND,INSIDE,RESIDENCE - APT. HOUSE,N.Y. POLICE DEPT,(null),(null),962873,174172,40.64472094,-74.07703272,"(40.6447209438691, -74.0770327198983)",,,,,,,,,,,,,,,,,,,,,,,,,,,,,,,,,,,,,
98,265741763,2023-03-27,11:00:00,2023-03-27,22:40:00,120,2023-03-27,104,RAPE,157,RAPE 1,COMPLETED,FELONY,STATEN ISLAND,INSIDE,RESIDENCE-HOUSE,N.Y. POLICE DEPT,(null),(null),962873,174172,40.64472094,-74.07703272,"(40.6447209438691, -74.0770327198983)",,,,,,,,,,,,,,,,,,,,,,,,,,,,,,,,,,,,,
99,265739622,2023-03-27,18:35:00,2023-03-27,18:45:00,120,2023-03-27,105,ROBBERY,390,"ROBBERY,HOME INVASION",COMPLETED,FELONY,STATEN ISLAND,INSIDE,RESIDENCE-HOUSE,N.Y. POLICE DEPT,(null),(null),960348,171964,40.638647,-74.086121,"(40.638647, -74.086121)",,,,,,,,,,,,,,,,,,,,,,,,,,,,,,,,,,,,,
100,265739627,2023-03-27,20:49:00,2023-03-27,20:50:00,122,2023-03-27,105,ROBBERY,375,"ROBBERY,PHARMACY",ATTEMPTED,FELONY,STATEN ISLAND,INSIDE,DRUG STORE,N.Y. POLICE DEPT,(null),(null),954262,150235,40.578987,-74.107952,"(40.578987, -74.107952)",,,,,,,,,,,,,,,,,,,,,,,,,,,,,,,,,,,,,
101,265775989,2023-03-28,12:00:00,2023-03-28,12:15:00,120,2023-03-28,105,ROBBERY,386,"ROBBERY,PERSONAL ELECTRONIC DEVICE",COMPLETED,FELONY,STATEN ISLAND,(null),STREET,N.Y. POLICE DEPT,(null),(null),961971,174202,40.64479282,-74.08028167,"(40.64479282, -74.08028167)",,,,,,,,,,,,,,,,,,,,,,,,,,,,,,,,,,,,,
102,266022919,2023-04-01,15:00:00,2023-04-01,17:00:00,122,2023-04-01,105,ROBBERY,398,"ROBBERY,PUBLIC PLACE INSIDE",COMPLETED,FELONY,STATEN ISLAND,INSIDE,HOSPITAL,N.Y. POLICE DEPT,(null),(null),960514,151754,40.583176,-74.08545,"(40.583176, -74.08545)",,,,,,,,,,,,,,,,,,,,,,,,,,,,,,,,,,,,,
103,266062136,2023-04-02,21:30:00,2023-04-02,21:42:00,121,2023-04-02,105,ROBBERY,386,"ROBBERY,PERSONAL ELECTRONIC DEVICE",COMPLETED,FELONY,STATEN ISLAND,FRONT OF,STREET,N.Y. POLICE DEPT,(null),(null),943246,168395,40.628788,-74.14772,"(40.628788, -74.14772)",,,,,,,,,,,,,,,,,,,,,,,,,,,,,,,,,,,,,
104,266053170,2023-04-02,15:31:00,2023-04-02,15:38:00,120,2023-04-02,105,ROBBERY,399,"ROBBERY,COMMERCIAL UNCLASSIFIED",COMPLETED,FELONY,STATEN ISLAND,FRONT OF,COMMERCIAL BUILDING,N.Y. POLICE DEPT,(null),(null),960913,165939,40.62211,-74.084062,"(40.62211, -74.084062)",,,,,,,,,,,,,,,,,,,,,,,,,,,,,,,,,,,,,
105,266048799,2023-04-02,14:35:00,,(null),122,2023-04-02,105,ROBBERY,397,"ROBBERY,OPEN AREA UNCLASSIFIED",COMPLETED,FELONY,STATEN ISLAND,REAR OF,STREET,N.Y. POLICE DEPT,(null),(null),950755,158676,40.602143,-74.120618,"(40.602143, -74.120618)",,,,,,,,,,,,,,,,,,,,,,,,,,,,,,,,,,,,,
106,266248891H1,2023-04-03,13:00:00,,(null),120,2023-04-03,101,MURDER & NON-NEGL. MANSLAUGHTER,,(null),COMPLETED,FELONY,STATEN ISLAND,INSIDE,(null),N.Y. POLICE DEPT,(null),(null),959734,174240,40.644892,-74.088341,"(40.644892, -74.088341)",,,,,,,,,,,,,,,,,,,,,,,,,,,,,,,,,,,,,
107,266117872,2023-04-03,21:00:00,2023-04-03,21:10:00,122,2023-04-04,104,RAPE,157,RAPE 1,COMPLETED,FELONY,STATEN ISLAND,REAR OF,OTHER,N.Y. POLICE DEPT,(null),(null),954827,148519,40.57428569,-74.10591441,"(40.5742856881925, -74.1059144051212)",,,,,,,,,,,,,,,,,,,,,,,,,,,,,,,,,,,,,
108,266087409,2023-04-03,12:45:00,2023-04-03,12:50:00,122,2023-04-03,105,ROBBERY,396,"ROBBERY,BEGIN AS SHOPLIFTING",COMPLETED,FELONY,STATEN ISLAND,INSIDE,FOOD SUPERMARKET,N.Y. POLICE DEPT,(null),(null),955133,148921,40.575382,-74.104812,"(40.575382, -74.104812)",,,,,,,,,,,,,,,,,,,,,,,,,,,,,,,,,,,,,
109,266162865,2023-04-03,21:30:00,2023-04-03,22:30:00,120,2023-04-04,105,ROBBERY,395,"ROBBERY,ON BUS/ OR BUS DRIVER",COMPLETED,FELONY,STATEN ISLAND,(null),BUS (NYC TRANSIT),N.Y. POLICE DEPT,(null),(null),964114,166065,40.62246362,-74.07253516,"(40.62246362, -74.07253516)",,,,,,,,,,,,,,,,,,,,,,,,,,,,,,,,,,,,,
110,266108940,2023-04-04,1:50:00,2023-04-04,01:55:00,121,2023-04-04,105,ROBBERY,377,"ROBBERY,BODEGA/CONVENIENCE STORE",COMPLETED,FELONY,STATEN ISLAND,INSIDE,GROCERY/BODEGA,N.Y. POLICE DEPT,(null),(null),938084,153602,40.588159,-74.166217,"(40.588159, -74.166217)",,,,,,,,,,,,,,,,,,,,,,,,,,,,,,,,,,,,,
111,266216869,2023-04-05,13:00:00,2023-04-05,13:30:00,120,2023-04-05,105,ROBBERY,386,"ROBBERY,PERSONAL ELECTRONIC DEVICE",COMPLETED,FELONY,STATEN ISLAND,(null),STREET,N.Y. POLICE DEPT,(null),(null),962896,171647,40.63778217,-74.07694038,"(40.63778217, -74.07694038)",,,,,,,,,,,,,,,,,,,,,,,,,,,,,,,,,,,,,
112,266319438,2023-04-06,18:15:00,2023-04-06,18:30:00,120,2023-04-06,105,ROBBERY,386,"ROBBERY,PERSONAL ELECTRONIC DEVICE",COMPLETED,FELONY,STATEN ISLAND,(null),STREET,N.Y. POLICE DEPT,(null),(null),950493,161759,40.61060312,-74.12158001,"(40.61060312, -74.12158001)",,,,,,,,,,,,,,,,,,,,,,,,,,,,,,,,,,,,,
113,266351509,2023-04-07,17:17:00,2023-04-07,17:19:00,122,2023-04-07,105,ROBBERY,377,"ROBBERY,BODEGA/CONVENIENCE STORE",COMPLETED,FELONY,STATEN ISLAND,INSIDE,VARIETY STORE,N.Y. POLICE DEPT,(null),(null),961267,157237,40.598227,-74.082759,"(40.598227, -74.082759)",,,,,,,,,,,,,,,,,,,,,,,,,,,,,,,,,,,,,
114,266374032,2023-04-08,9:30:00,2023-04-08,10:00:00,120,2023-04-08,105,ROBBERY,386,"ROBBERY,PERSONAL ELECTRONIC DEVICE",COMPLETED,FELONY,STATEN ISLAND,INSIDE,RESIDENCE - APT. HOUSE,N.Y. POLICE DEPT,(null),(null),950198,168379,40.628773,-74.122675,"(40.628773, -74.122675)",,,,,,,,,,,,,,,,,,,,,,,,,,,,,,,,,,,,,
115,266518182,2023-04-11,17:10:00,2023-04-11,17:15:00,123,2023-04-11,105,ROBBERY,386,"ROBBERY,PERSONAL ELECTRONIC DEVICE",COMPLETED,FELONY,STATEN ISLAND,FRONT OF,PARKING LOT/GARAGE (PRIVATE),N.Y. POLICE DEPT,(null),(null),934803,136399,40.540923,-74.177901,"(40.540923, -74.177901)",,,,,,,,,,,,,,,,,,,,,,,,,,,,,,,,,,,,,
116,266575382,2023-04-12,13:20:00,2023-04-12,13:30:00,120,2023-04-12,105,ROBBERY,386,"ROBBERY,PERSONAL ELECTRONIC DEVICE",COMPLETED,FELONY,STATEN ISLAND,INSIDE,COMMERCIAL BUILDING,N.Y. POLICE DEPT,(null),(null),963129,167869,40.627414,-74.076089,"(40.627414, -74.076089)",,,,,,,,,,,,,,,,,,,,,,,,,,,,,,,,,,,,,
117,266666628H1,2023-04-13,22:30:00,,(null),120,2023-04-13,101,MURDER & NON-NEGL. MANSLAUGHTER,,(null),COMPLETED,FELONY,STATEN ISLAND,OUTSIDE,(null),N.Y. POLICE DEPT,(null),(null),962170,168013,40.627807,-74.079541,"(40.627807, -74.079541)",,,,,,,,,,,,,,,,,,,,,,,,,,,,,,,,,,,,,
118,266695267,2023-04-14,17:40:00,2023-04-14,18:00:00,122,2023-04-14,105,ROBBERY,397,"ROBBERY,OPEN AREA UNCLASSIFIED",ATTEMPTED,FELONY,STATEN ISLAND,FRONT OF,STREET,N.Y. POLICE DEPT,(null),(null),959780,154626,40.591056,-74.088105,"(40.591056, -74.088105)",,,,,,,,,,,,,,,,,,,,,,,,,,,,,,,,,,,,,
119,266709096,2023-04-15,3:40:00,2023-04-15,04:30:00,122,2023-04-15,105,ROBBERY,380,"ROBBERY,CAR JACKING",COMPLETED,FELONY,STATEN ISLAND,(null),STREET,N.Y. POLICE DEPT,(null),(null),958088,147544,40.5716115,-74.09417066,"(40.5716115, -74.09417066)",,,,,,,,,,,,,,,,,,,,,,,,,,,,,,,,,,,,,
120,266727437,2023-04-15,12:30:00,2023-04-15,13:00:00,120,2023-04-15,105,ROBBERY,366,"ROBBERY,BICYCLE",COMPLETED,FELONY,STATEN ISLAND,INSIDE,COMMERCIAL BUILDING,N.Y. POLICE DEPT,(null),(null),962387,167289,40.625819,-74.078759,"(40.625819, -74.078759)",,,,,,,,,,,,,,,,,,,,,,,,,,,,,,,,,,,,,
121,266720040,2023-04-15,10:20:00,2023-04-15,10:30:00,121,2023-04-15,105,ROBBERY,380,"ROBBERY,CAR JACKING",COMPLETED,FELONY,STATEN ISLAND,FRONT OF,STREET,N.Y. POLICE DEPT,(null),(null),943509,169402,40.631553,-74.146779,"(40.631553, -74.146779)",,,,,,,,,,,,,,,,,,,,,,,,,,,,,,,,,,,,,
122,266765661,2023-04-16,15:40:00,2023-04-16,15:50:00,121,2023-04-16,105,ROBBERY,396,"ROBBERY,BEGIN AS SHOPLIFTING",COMPLETED,FELONY,STATEN ISLAND,INSIDE,COMMERCIAL BUILDING,N.Y. POLICE DEPT,(null),(null),935629,167479,40.626237,-74.175155,"(40.626237, -74.175155)",,,,,,,,,,,,,,,,,,,,,,,,,,,,,,,,,,,,,
123,266799680,2023-04-17,9:00:00,2023-04-17,09:10:00,120,2023-04-17,105,ROBBERY,388,"ROBBERY,RESIDENTIAL COMMON AREA",COMPLETED,FELONY,STATEN ISLAND,INSIDE,RESIDENCE - APT. HOUSE,N.Y. POLICE DEPT,(null),(null),958112,173521,40.642915,-74.094183,"(40.642915, -74.094183)",,,,,,,,,,,,,,,,,,,,,,,,,,,,,,,,,,,,,
124,266876127,2023-04-18,16:45:00,2023-04-18,17:06:00,120,2023-04-18,105,ROBBERY,396,"ROBBERY,BEGIN AS SHOPLIFTING",COMPLETED,FELONY,STATEN ISLAND,INSIDE,CANDY STORE,N.Y. POLICE DEPT,(null),(null),963181,171777,40.638142,-74.075912,"(40.638142, -74.075912)",,,,,,,,,,,,,,,,,,,,,,,,,,,,,,,,,,,,,
125,266840616,2023-04-18,9:05:00,2023-04-18,09:11:00,120,2023-04-18,105,ROBBERY,399,"ROBBERY,COMMERCIAL UNCLASSIFIED",COMPLETED,FELONY,STATEN ISLAND,INSIDE,(null),N.Y. POLICE DEPT,(null),(null),962808,174275,40.644996,-74.077263,"(40.644996, -74.077263)",,,,,,,,,,,,,,,,,,,,,,,,,,,,,,,,,,,,,
126,266915431,2023-04-19,9:45:00,2023-04-19,09:55:00,121,2023-04-19,105,ROBBERY,380,"ROBBERY,CAR JACKING",COMPLETED,FELONY,STATEN ISLAND,FRONT OF,STREET,N.Y. POLICE DEPT,(null),(null),945353,165907,40.621969,-74.140115,"(40.621969, -74.140115)",,,,,,,,,,,,,,,,,,,,,,,,,,,,,,,,,,,,,
127,266930231,2023-04-19,11:24:00,2023-04-19,11:47:00,121,2023-04-19,104,RAPE,157,RAPE 1,COMPLETED,FELONY,STATEN ISLAND,INSIDE,RESIDENCE-HOUSE,N.Y. POLICE DEPT,(null),(null),942822,166353,40.62318838,-74.14923769,"(40.6231883776008, -74.1492376947323)",,,,,,,,,,,,,,,,,,,,,,,,,,,,,,,,,,,,,
128,266932119,2023-04-19,14:00:00,,(null),122,2023-04-19,105,ROBBERY,397,"ROBBERY,OPEN AREA UNCLASSIFIED",ATTEMPTED,FELONY,STATEN ISLAND,(null),STREET,N.Y. POLICE DEPT,(null),(null),965499,154723,40.5913352,-74.06751454,"(40.5913352, -74.06751454)",,,,,,,,,,,,,,,,,,,,,,,,,,,,,,,,,,,,,
129,267050199,2023-04-20,22:00:00,,(null),121,2023-04-21,105,ROBBERY,382,"ROBBERY,NECKCHAIN/JEWELRY",COMPLETED,FELONY,STATEN ISLAND,(null),STREET,N.Y. POLICE DEPT,(null),(null),940379,170521,40.63460864,-74.1580637,"(40.63460864, -74.1580637)",,,,,,,,,,,,,,,,,,,,,,,,,,,,,,,,,,,,,
130,267011542,2023-04-20,15:00:00,2023-04-20,15:45:00,120,2023-04-20,105,ROBBERY,387,"ROBBERY,CLOTHING",COMPLETED,FELONY,STATEN ISLAND,REAR OF,RESIDENCE - PUBLIC HOUSING,N.Y. HOUSING POLICE,(null),(null),960029,174205,40.644797,-74.087278,"(40.644797, -74.087278)",,,,,,,,,,,,,,,,,,,,,,,,,,,,,,,,,,,,,
131,267108774,2023-04-21,20:28:00,2023-04-21,20:32:00,120,2023-04-22,105,ROBBERY,386,"ROBBERY,PERSONAL ELECTRONIC DEVICE",COMPLETED,FELONY,STATEN ISLAND,FRONT OF,STREET,N.Y. POLICE DEPT,(null),(null),962604,167031,40.625114,-74.077974,"(40.625114, -74.077974)",,,,,,,,,,,,,,,,,,,,,,,,,,,,,,,,,,,,,
132,267122665,2023-04-23,7:06:00,2023-04-23,07:07:00,122,2023-04-23,105,ROBBERY,379,"ROBBERY,GAS STATION",COMPLETED,FELONY,STATEN ISLAND,INSIDE,GAS STATION,N.Y. POLICE DEPT,(null),(null),939399,137839,40.5449,-74.161376,"(40.5449, -74.161376)",,,,,,,,,,,,,,,,,,,,,,,,,,,,,,,,,,,,,
133,267212255H1,2023-04-23,22:00:00,,(null),122,2023-04-23,101,MURDER & NON-NEGL. MANSLAUGHTER,,(null),COMPLETED,FELONY,STATEN ISLAND,INSIDE,PVT HOUSE,N.Y. POLICE DEPT,(null),(null),945140,144789,40.564004,-74.140759,"(40.564004, -74.140759)",,,,,,,,,,,,,,,,,,,,,,,,,,,,,,,,,,,,,
134,267138407,2023-04-23,12:00:00,2023-04-23,13:00:00,120,2023-04-23,105,ROBBERY,386,"ROBBERY,PERSONAL ELECTRONIC DEVICE",COMPLETED,FELONY,STATEN ISLAND,REAR OF,STREET,N.Y. POLICE DEPT,(null),(null),962594,174631,40.645974,-74.078036,"(40.645974, -74.078036)",,,,,,,,,,,,,,,,,,,,,,,,,,,,,,,,,,,,,
135,268123275,2023-04-28,1:00:00,2023-04-29,01:00:00,122,2023-05-11,104,RAPE,153,RAPE 3,COMPLETED,FELONY,STATEN ISLAND,INSIDE,RESIDENCE-HOUSE,N.Y. POLICE DEPT,(null),(null),954827,148519,40.57428569,-74.10591441,"(40.5742856881925, -74.1059144051212)",,,,,,,,,,,,,,,,,,,,,,,,,,,,,,,,,,,,,
136,267434441,2023-04-28,21:20:00,2023-04-28,21:39:00,120,2023-04-28,105,ROBBERY,395,"ROBBERY,ON BUS/ OR BUS DRIVER",COMPLETED,FELONY,STATEN ISLAND,(null),STREET,N.Y. POLICE DEPT,(null),(null),961734,164364,40.617789,-74.08110287,"(40.617789, -74.08110287)",,,,,,,,,,,,,,,,,,,,,,,,,,,,,,,,,,,,,
137,267479258,2023-04-29,15:30:00,2023-04-29,16:00:00,121,2023-04-29,105,ROBBERY,396,"ROBBERY,BEGIN AS SHOPLIFTING",COMPLETED,FELONY,STATEN ISLAND,(null),OTHER,N.Y. POLICE DEPT,(null),(null),945449,166799,40.624418,-74.139774,"(40.624418, -74.139774)",,,,,,,,,,,,,,,,,,,,,,,,,,,,,,,,,,,,,
138,267497241,2023-04-30,5:00:00,2023-04-30,05:20:00,122,2023-04-30,105,ROBBERY,388,"ROBBERY,RESIDENTIAL COMMON AREA",COMPLETED,FELONY,STATEN ISLAND,INSIDE,RESIDENCE - PUBLIC HOUSING,N.Y. HOUSING POLICE,(null),(null),955720,152880,40.586252,-74.102717,"(40.586252, -74.102717)",,,,,,,,,,,,,,,,,,,,,,,,,,,,,,,,,,,,,
139,267779547,2023-05-05,10:20:00,2023-05-05,10:35:00,122,2023-05-05,105,ROBBERY,389,"ROBBERY,DWELLING",COMPLETED,FELONY,STATEN ISLAND,INSIDE,RESIDENCE-HOUSE,N.Y. POLICE DEPT,(null),(null),948876,149077,40.575789,-74.127334,"(40.575789, -74.127334)",,,,,,,,,,,,,,,,,,,,,,,,,,,,,,,,,,,,,
140,267825589,2023-05-05,8:00:00,2023-05-06,03:00:00,120,2023-05-06,104,RAPE,153,RAPE 3,COMPLETED,FELONY,STATEN ISLAND,FRONT OF,STREET,N.Y. POLICE DEPT,(null),(null),962873,174172,40.64472094,-74.07703272,"(40.6447209438691, -74.0770327198983)",,,,,,,,,,,,,,,,,,,,,,,,,,,,,,,,,,,,,
141,268067164H1,2023-05-10,21:00:00,,(null),120,2023-05-10,101,MURDER & NON-NEGL. MANSLAUGHTER,,(null),COMPLETED,FELONY,STATEN ISLAND,INSIDE,MULTI DWELL - PUBLIC HOUS,N.Y. HOUSING POLICE,(null),(null),962020,165682,40.621409,-74.080076,"(40.621409, -74.080076)",,,,,,,,,,,,,,,,,,,,,,,,,,,,,,,,,,,,,
142,268098806,2023-05-11,12:00:00,2023-05-11,12:30:00,123,2023-05-11,105,ROBBERY,386,"ROBBERY,PERSONAL ELECTRONIC DEVICE",COMPLETED,FELONY,STATEN ISLAND,INSIDE,PUBLIC SCHOOL,N.Y. POLICE DEPT,(null),(null),930969,131549,40.527587,-74.191658,"(40.527587, -74.191658)",,,,,,,,,,,,,,,,,,,,,,,,,,,,,,,,,,,,,
143,268168691,2023-05-12,16:45:00,2023-05-12,16:51:00,122,2023-05-12,105,ROBBERY,386,"ROBBERY,PERSONAL ELECTRONIC DEVICE",COMPLETED,FELONY,STATEN ISLAND,(null),STREET,N.Y. POLICE DEPT,(null),(null),942389,140403,40.55195064,-74.15063524,"(40.55195064, -74.15063524)",,,,,,,,,,,,,,,,,,,,,,,,,,,,,,,,,,,,,
144,268135278,2023-05-12,0:00:00,2023-05-12,01:37:00,120,2023-05-12,105,ROBBERY,386,"ROBBERY,PERSONAL ELECTRONIC DEVICE",COMPLETED,FELONY,STATEN ISLAND,REAR OF,RESIDENCE - APT. HOUSE,N.Y. POLICE DEPT,(null),(null),961612,166618,40.623977,-74.081548,"(40.623977, -74.081548)",,,,,,,,,,,,,,,,,,,,,,,,,,,,,,,,,,,,,
145,268214653,2023-05-13,20:55:00,2023-05-13,21:00:00,120,2023-05-13,105,ROBBERY,396,"ROBBERY,BEGIN AS SHOPLIFTING",COMPLETED,FELONY,STATEN ISLAND,INSIDE,CHAIN STORE,N.Y. POLICE DEPT,(null),(null),955366,163788,40.616191,-74.104035,"(40.616191, -74.104035)",,,,,,,,,,,,,,,,,,,,,,,,,,,,,,,,,,,,,
146,268178405,2023-05-13,2:25:00,2023-05-13,02:25:00,120,2023-05-13,105,ROBBERY,386,"ROBBERY,PERSONAL ELECTRONIC DEVICE",COMPLETED,FELONY,STATEN ISLAND,FRONT OF,STREET,N.Y. POLICE DEPT,(null),(null),963772,166550,40.623796,-74.073767,"(40.623796, -74.073767)",,,,,,,,,,,,,,,,,,,,,,,,,,,,,,,,,,,,,
147,268234709,2023-05-14,12:40:00,2023-05-14,12:45:00,120,2023-05-14,105,ROBBERY,386,"ROBBERY,PERSONAL ELECTRONIC DEVICE",COMPLETED,FELONY,STATEN ISLAND,FRONT OF,STREET,N.Y. POLICE DEPT,(null),(null),955642,162520,40.612712,-74.103037,"(40.612712, -74.103037)",,,,,,,,,,,,,,,,,,,,,,,,,,,,,,,,,,,,,
148,268242907,2023-05-14,19:00:00,2023-05-14,19:15:00,120,2023-05-14,105,ROBBERY,397,"ROBBERY,OPEN AREA UNCLASSIFIED",COMPLETED,FELONY,STATEN ISLAND,FRONT OF,STREET,N.Y. POLICE DEPT,(null),(null),960675,170581,40.634852,-74.084938,"(40.634852, -74.084938)",,,,,,,,,,,,,,,,,,,,,,,,,,,,,,,,,,,,,
149,268302525,2023-05-15,22:30:00,2023-05-15,22:40:00,121,2023-05-16,105,ROBBERY,389,"ROBBERY,DWELLING",COMPLETED,FELONY,STATEN ISLAND,INSIDE,RESIDENCE - APT. HOUSE,N.Y. POLICE DEPT,(null),(null),936721,172119,40.638977,-74.171252,"(40.638977, -74.171252)",,,,,,,,,,,,,,,,,,,,,,,,,,,,,,,,,,,,,
150,268408080,2023-05-17,17:00:00,2023-05-17,17:00:00,121,2023-05-17,105,ROBBERY,366,"ROBBERY,BICYCLE",COMPLETED,FELONY,STATEN ISLAND,(null),STREET,N.Y. POLICE DEPT,(null),(null),946845,171026,40.63602442,-74.13477006,"(40.63602442, -74.13477006)",,,,,,,,,,,,,,,,,,,,,,,,,,,,,,,,,,,,,
151,268697223,2023-05-23,14:30:00,2023-05-23,14:45:00,120,2023-05-23,105,ROBBERY,389,"ROBBERY,DWELLING",COMPLETED,FELONY,STATEN ISLAND,FRONT OF,RESIDENCE - APT. HOUSE,N.Y. POLICE DEPT,(null),(null),960624,166523,40.623713,-74.085106,"(40.623713, -74.085106)",,,,,,,,,,,,,,,,,,,,,,,,,,,,,,,,,,,,,
152,268925995,2023-05-27,14:00:00,2023-05-27,14:15:00,121,2023-05-27,105,ROBBERY,397,"ROBBERY,OPEN AREA UNCLASSIFIED",COMPLETED,FELONY,STATEN ISLAND,(null),STREET,N.Y. POLICE DEPT,(null),(null),947716,159273,40.60376856,-74.13156825,"(40.60376856, -74.13156825)",,,,,,,,,,,,,,,,,,,,,,,,,,,,,,,,,,,,,
153,269954043,2023-05-27,0:01:00,2023-05-27,23:59:00,120,2023-06-16,104,RAPE,153,RAPE 3,COMPLETED,FELONY,STATEN ISLAND,INSIDE,RESIDENCE - PUBLIC HOUSING,N.Y. HOUSING POLICE,(null),(null),962873,174172,40.64472094,-74.07703272,"(40.6447209438691, -74.0770327198983)",,,,,,,,,,,,,,,,,,,,,,,,,,,,,,,,,,,,,
154,269002693,2023-05-29,20:50:00,2023-05-29,20:59:00,121,2023-05-29,105,ROBBERY,396,"ROBBERY,BEGIN AS SHOPLIFTING",COMPLETED,FELONY,STATEN ISLAND,INSIDE,CHAIN STORE,N.Y. POLICE DEPT,(null),(null),935629,167479,40.626237,-74.175155,"(40.626237, -74.175155)",,,,,,,,,,,,,,,,,,,,,,,,,,,,,,,,,,,,,
155,269037319,2023-05-30,15:50:00,2023-05-30,15:59:00,121,2023-05-30,105,ROBBERY,399,"ROBBERY,COMMERCIAL UNCLASSIFIED",COMPLETED,FELONY,STATEN ISLAND,INSIDE,CHAIN STORE,N.Y. POLICE DEPT,(null),(null),940598,167432,40.626133,-74.157252,"(40.626133, -74.157252)",,,,,,,,,,,,,,,,,,,,,,,,,,,,,,,,,,,,,
156,269196679,2023-06-01,23:00:00,2023-06-02,00:01:00,122,2023-06-02,104,RAPE,157,RAPE 1,COMPLETED,FELONY,STATEN ISLAND,INSIDE,RESIDENCE - APT. HOUSE,N.Y. POLICE DEPT,(null),(null),954827,148519,40.57428569,-74.10591441,"(40.5742856881925, -74.1059144051212)",,,,,,,,,,,,,,,,,,,,,,,,,,,,,,,,,,,,,
157,278636633,2023-06-02,0:01:00,2023-06-07,23:59:00,120,2023-12-05,104,RAPE,157,RAPE 1,COMPLETED,FELONY,STATEN ISLAND,INSIDE,RESIDENCE-HOUSE,N.Y. POLICE DEPT,(null),(null),962873,174172,40.64472094,-74.07703272,"(40.6447209438691, -74.0770327198983)",,,,,,,,,,,,,,,,,,,,,,,,,,,,,,,,,,,,,
158,269272234,2023-06-03,23:18:00,2023-06-03,23:20:00,122,2023-06-04,105,ROBBERY,399,"ROBBERY,COMMERCIAL UNCLASSIFIED",COMPLETED,FELONY,STATEN ISLAND,INSIDE,GROCERY/BODEGA,N.Y. POLICE DEPT,(null),(null),950255,148900,40.575308,-74.12237,"(40.575308, -74.12237)",,,,,,,,,,,,,,,,,,,,,,,,,,,,,,,,,,,,,
159,269271881,2023-06-03,22:15:00,2023-06-03,22:20:00,123,2023-06-03,105,ROBBERY,399,"ROBBERY,COMMERCIAL UNCLASSIFIED",COMPLETED,FELONY,STATEN ISLAND,INSIDE,STORE UNCLASSIFIED,N.Y. POLICE DEPT,(null),(null),934930,136812,40.542057,-74.177447,"(40.542057, -74.177447)",,,,,,,,,,,,,,,,,,,,,,,,,,,,,,,,,,,,,
160,269303345,2023-06-04,18:45:00,2023-06-04,19:00:00,120,2023-06-04,105,ROBBERY,390,"ROBBERY,HOME INVASION",COMPLETED,FELONY,STATEN ISLAND,INSIDE,RESIDENCE - APT. HOUSE,N.Y. POLICE DEPT,(null),(null),959807,172353,40.639713,-74.088073,"(40.639713, -74.088073)",,,,,,,,,,,,,,,,,,,,,,,,,,,,,,,,,,,,,
161,269306893,2023-06-04,20:00:00,2023-06-04,20:39:00,121,2023-06-04,104,RAPE,157,RAPE 1,COMPLETED,FELONY,STATEN ISLAND,INSIDE,HOTEL/MOTEL,N.Y. POLICE DEPT,(null),(null),942822,166353,40.62318838,-74.14923769,"(40.6231883776008, -74.1492376947323)",,,,,,,,,,,,,,,,,,,,,,,,,,,,,,,,,,,,,
162,269333036,2023-06-05,8:17:00,2023-06-05,08:19:00,121,2023-06-05,105,ROBBERY,386,"ROBBERY,PERSONAL ELECTRONIC DEVICE",COMPLETED,FELONY,STATEN ISLAND,(null),OTHER,N.Y. POLICE DEPT,(null),(null),946981,171285,40.63673589,-74.13428148,"(40.63673589, -74.13428148)",,,,,,,,,,,,,,,,,,,,,,,,,,,,,,,,,,,,,
163,269425283,2023-06-06,23:00:00,2023-06-06,23:20:00,120,2023-06-06,105,ROBBERY,386,"ROBBERY,PERSONAL ELECTRONIC DEVICE",COMPLETED,FELONY,STATEN ISLAND,FRONT OF,RESIDENCE-HOUSE,N.Y. POLICE DEPT,(null),(null),956095,163323,40.614918,-74.101409,"(40.614918, -74.101409)",,,,,,,,,,,,,,,,,,,,,,,,,,,,,,,,,,,,,
164,269538562,2023-06-08,16:00:00,2023-06-08,17:20:00,123,2023-06-08,105,ROBBERY,398,"ROBBERY,PUBLIC PLACE INSIDE",COMPLETED,FELONY,STATEN ISLAND,OPPOSITE OF,COMMERCIAL BUILDING,N.Y. POLICE DEPT,(null),(null),921084,131681,40.527884,-74.227217,"(40.527884, -74.227217)",,,,,,,,,,,,,,,,,,,,,,,,,,,,,,,,,,,,,
165,269616971,2023-06-10,2:00:00,2023-06-10,02:03:00,120,2023-06-10,105,ROBBERY,397,"ROBBERY,OPEN AREA UNCLASSIFIED",COMPLETED,FELONY,STATEN ISLAND,REAR OF,OTHER,N.Y. POLICE DEPT,(null),(null),963180,173627,40.64322,-74.075921,"(40.64322, -74.075921)",,,,,,,,,,,,,,,,,,,,,,,,,,,,,,,,,,,,,
166,269677842,2023-06-11,22:45:00,2023-06-11,23:00:00,120,2023-06-11,105,ROBBERY,397,"ROBBERY,OPEN AREA UNCLASSIFIED",COMPLETED,FELONY,STATEN ISLAND,FRONT OF,STREET,N.Y. POLICE DEPT,(null),(null),960743,164953,40.619404,-74.084672,"(40.619404, -74.084672)",,,,,,,,,,,,,,,,,,,,,,,,,,,,,,,,,,,,,
167,269788091,2023-06-13,18:15:00,2023-06-13,18:20:00,123,2023-06-13,105,ROBBERY,386,"ROBBERY,PERSONAL ELECTRONIC DEVICE",COMPLETED,FELONY,STATEN ISLAND,FRONT OF,STREET,N.Y. POLICE DEPT,(null),(null),935803,144135,40.562163,-74.174358,"(40.562163, -74.174358)",,,,,,,,,,,,,,,,,,,,,,,,,,,,,,,,,,,,,
168,269810372,2023-06-14,4:15:00,2023-06-14,04:25:00,120,2023-06-14,105,ROBBERY,397,"ROBBERY,OPEN AREA UNCLASSIFIED",COMPLETED,FELONY,STATEN ISLAND,(null),STREET,N.Y. POLICE DEPT,(null),(null),963295,172328,40.63965233,-74.07550486,"(40.639652329285994, -74.07550486449259)",,,,,,,,,,,,,,,,,,,,,,,,,,,,,,,,,,,,,
169,269966495,2023-06-16,17:25:00,2023-06-16,17:40:00,121,2023-06-16,105,ROBBERY,382,"ROBBERY,NECKCHAIN/JEWELRY",COMPLETED,FELONY,STATEN ISLAND,INSIDE,COMMERCIAL BUILDING,N.Y. POLICE DEPT,(null),(null),937288,151471,40.582305,-74.169067,"(40.582305, -74.169067)",,,,,,,,,,,,,,,,,,,,,,,,,,,,,,,,,,,,,
170,269975852,2023-06-17,3:00:00,2023-06-17,03:15:00,121,2023-06-17,105,ROBBERY,386,"ROBBERY,PERSONAL ELECTRONIC DEVICE",COMPLETED,FELONY,STATEN ISLAND,(null),BUS STOP,N.Y. POLICE DEPT,(null),(null),937478,165774,40.62156431,-74.16848285,"(40.62156431, -74.16848285)",,,,,,,,,,,,,,,,,,,,,,,,,,,,,,,,,,,,,
171,270040299,2023-06-17,22:33:00,2023-06-17,22:40:00,121,2023-06-17,105,ROBBERY,386,"ROBBERY,PERSONAL ELECTRONIC DEVICE",COMPLETED,FELONY,STATEN ISLAND,INSIDE,RESTAURANT/DINER,N.Y. POLICE DEPT,(null),(null),939905,162038,40.611323,-74.159715,"(40.611323, -74.159715)",,,,,,,,,,,,,,,,,,,,,,,,,,,,,,,,,,,,,
172,270018956,2023-06-18,9:00:00,2023-06-18,09:30:00,120,2023-06-18,105,ROBBERY,396,"ROBBERY,BEGIN AS SHOPLIFTING",COMPLETED,FELONY,STATEN ISLAND,INSIDE,SMALL MERCHANT,N.Y. POLICE DEPT,(null),(null),962387,167289,40.625819,-74.078759,"(40.625819, -74.078759)",,,,,,,,,,,,,,,,,,,,,,,,,,,,,,,,,,,,,
173,270077622,2023-06-19,19:38:00,2023-06-19,19:40:00,123,2023-06-19,105,ROBBERY,386,"ROBBERY,PERSONAL ELECTRONIC DEVICE",COMPLETED,FELONY,STATEN ISLAND,REAR OF,STREET,N.Y. POLICE DEPT,(null),(null),936758,139755,40.550145,-74.17089,"(40.550145, -74.17089)",,,,,,,,,,,,,,,,,,,,,,,,,,,,,,,,,,,,,
174,270078137,2023-06-19,23:45:00,2023-06-19,23:52:00,120,2023-06-20,105,ROBBERY,399,"ROBBERY,COMMERCIAL UNCLASSIFIED",COMPLETED,FELONY,STATEN ISLAND,INSIDE,SMALL MERCHANT,N.Y. POLICE DEPT,(null),(null),950012,162644,40.613033,-74.123317,"(40.613033, -74.123317)",,,,,,,,,,,,,,,,,,,,,,,,,,,,,,,,,,,,,
175,270084982,2023-06-19,22:51:00,2023-06-19,23:50:00,120,2023-06-20,105,ROBBERY,386,"ROBBERY,PERSONAL ELECTRONIC DEVICE",COMPLETED,FELONY,STATEN ISLAND,INSIDE,RESIDENCE-HOUSE,N.Y. POLICE DEPT,(null),(null),964555,162123,40.611647,-74.070934,"(40.611647, -74.070934)",,,,,,,,,,,,,,,,,,,,,,,,,,,,,,,,,,,,,
176,270177922,2023-06-20,18:40:00,2023-06-20,18:45:00,121,2023-06-21,105,ROBBERY,396,"ROBBERY,BEGIN AS SHOPLIFTING",COMPLETED,FELONY,STATEN ISLAND,FRONT OF,DEPARTMENT STORE,N.Y. POLICE DEPT,(null),(null),935629,167479,40.626237,-74.175155,"(40.626237, -74.175155)",,,,,,,,,,,,,,,,,,,,,,,,,,,,,,,,,,,,,
177,270085642,2023-06-20,1:05:00,2023-06-20,01:10:00,122,2023-06-20,105,ROBBERY,396,"ROBBERY,BEGIN AS SHOPLIFTING",COMPLETED,FELONY,STATEN ISLAND,INSIDE,CHAIN STORE,N.Y. POLICE DEPT,(null),(null),960339,156190,40.59535,-74.086097,"(40.59535, -74.086097)",,,,,,,,,,,,,,,,,,,,,,,,,,,,,,,,,,,,,
178,270113487,2023-06-20,13:59:00,2023-06-20,14:05:00,121,2023-06-20,105,ROBBERY,377,"ROBBERY,BODEGA/CONVENIENCE STORE",COMPLETED,FELONY,STATEN ISLAND,INSIDE,GROCERY/BODEGA,N.Y. POLICE DEPT,(null),(null),938103,170307,40.63401,-74.16626,"(40.63401, -74.16626)",,,,,,,,,,,,,,,,,,,,,,,,,,,,,,,,,,,,,
179,270132690,2023-06-20,16:24:00,2023-06-20,16:30:00,120,2023-06-20,105,ROBBERY,386,"ROBBERY,PERSONAL ELECTRONIC DEVICE",COMPLETED,FELONY,STATEN ISLAND,FRONT OF,CHAIN STORE,N.Y. POLICE DEPT,(null),(null),963152,171088,40.636249,-74.076013,"(40.636249, -74.076013)",,,,,,,,,,,,,,,,,,,,,,,,,,,,,,,,,,,,,
180,270214034H1,2023-06-21,22:06:00,,(null),121,2023-06-21,101,MURDER & NON-NEGL. MANSLAUGHTER,,(null),COMPLETED,FELONY,STATEN ISLAND,INSIDE,MULTI DWELL - APT BUILD,N.Y. POLICE DEPT,(null),(null),941400,167659,40.62676,-74.154365,"(40.62676, -74.154365)",,,,,,,,,,,,,,,,,,,,,,,,,,,,,,,,,,,,,
181,270196579,2023-06-21,19:28:00,2023-06-21,19:42:00,121,2023-06-21,105,ROBBERY,397,"ROBBERY,OPEN AREA UNCLASSIFIED",COMPLETED,FELONY,STATEN ISLAND,(null),STREET,N.Y. POLICE DEPT,(null),(null),943774,170504,40.63457814,-74.14583171,"(40.63457814, -74.14583171)",,,,,,,,,,,,,,,,,,,,,,,,,,,,,,,,,,,,,
182,270185735,2023-06-21,14:11:00,2023-06-21,14:28:00,120,2023-06-21,105,ROBBERY,386,"ROBBERY,PERSONAL ELECTRONIC DEVICE",COMPLETED,FELONY,STATEN ISLAND,FRONT OF,STREET,N.Y. POLICE DEPT,(null),(null),963024,171638,40.63776,-74.076476,"(40.63776, -74.076476)",,,,,,,,,,,,,,,,,,,,,,,,,,,,,,,,,,,,,
183,270314619,2023-06-23,19:31:00,2023-06-23,20:37:00,120,2023-06-23,105,ROBBERY,380,"ROBBERY,CAR JACKING",ATTEMPTED,FELONY,STATEN ISLAND,FRONT OF,OPEN AREAS (OPEN LOTS),N.Y. POLICE DEPT,(null),(null),948733,170819,40.635466,-74.127964,"(40.635466, -74.127964)",,,,,,,,,,,,,,,,,,,,,,,,,,,,,,,,,,,,,
184,270334196,2023-06-24,10:35:00,2023-06-24,10:36:00,120,2023-06-24,105,ROBBERY,396,"ROBBERY,BEGIN AS SHOPLIFTING",COMPLETED,FELONY,STATEN ISLAND,FRONT OF,OTHER,N.Y. POLICE DEPT,(null),(null),962514,167770,40.627141,-74.078302,"(40.627141, -74.078302)",,,,,,,,,,,,,,,,,,,,,,,,,,,,,,,,,,,,,
185,270352583,2023-06-24,23:54:00,2023-06-25,01:19:00,120,2023-06-25,105,ROBBERY,380,"ROBBERY,CAR JACKING",COMPLETED,FELONY,STATEN ISLAND,FRONT OF,GAS STATION,N.Y. POLICE DEPT,(null),(null),964832,164885,40.619228,-74.069942,"(40.619228, -74.069942)",,,,,,,,,,,,,,,,,,,,,,,,,,,,,,,,,,,,,
186,270384994,2023-06-25,21:08:00,2023-06-25,21:44:00,120,2023-06-25,105,ROBBERY,386,"ROBBERY,PERSONAL ELECTRONIC DEVICE",COMPLETED,FELONY,STATEN ISLAND,INSIDE,PARK/PLAYGROUND,N.Y. POLICE DEPT,(null),(null),958522,167133,40.625382,-74.092682,"(40.625382, -74.092682)",,,,,,,,,,,,,,,,,,,,,,,,,,,,,,,,,,,,,
187,270978546,2023-06-26,21:30:00,2023-06-26,22:00:00,122,2023-07-07,104,RAPE,153,RAPE 3,COMPLETED,FELONY,STATEN ISLAND,INSIDE,RESIDENCE - APT. HOUSE,N.Y. POLICE DEPT,(null),(null),954827,148519,40.57428569,-74.10591441,"(40.5742856881925, -74.1059144051212)",,,,,,,,,,,,,,,,,,,,,,,,,,,,,,,,,,,,,
188,270512562,2023-06-28,13:00:00,2023-06-28,13:03:00,120,2023-06-28,105,ROBBERY,386,"ROBBERY,PERSONAL ELECTRONIC DEVICE",COMPLETED,FELONY,STATEN ISLAND,OPPOSITE OF,STREET,N.Y. POLICE DEPT,(null),(null),960686,164654,40.618583,-74.084877,"(40.618583, -74.084877)",,,,,,,,,,,,,,,,,,,,,,,,,,,,,,,,,,,,,
189,270483046,2023-06-28,2:35:00,2023-06-28,02:38:00,120,2023-06-28,105,ROBBERY,382,"ROBBERY,NECKCHAIN/JEWELRY",COMPLETED,FELONY,STATEN ISLAND,FRONT OF,STREET,N.Y. POLICE DEPT,(null),(null),959447,170979,40.63594,-74.089363,"(40.63594, -74.089363)",,,,,,,,,,,,,,,,,,,,,,,,,,,,,,,,,,,,,
190,270632723,2023-06-30,16:15:00,2023-06-30,16:18:00,123,2023-06-30,105,ROBBERY,386,"ROBBERY,PERSONAL ELECTRONIC DEVICE",COMPLETED,FELONY,STATEN ISLAND,FRONT OF,STREET,N.Y. POLICE DEPT,(null),(null),936078,136707,40.541776,-74.173318,"(40.541776, -74.173318)",,,,,,,,,,,,,,,,,,,,,,,,,,,,,,,,,,,,,
191,270612550,2023-06-30,7:30:00,2023-06-30,07:55:00,120,2023-06-30,105,ROBBERY,396,"ROBBERY,BEGIN AS SHOPLIFTING",COMPLETED,FELONY,STATEN ISLAND,INSIDE,GAS STATION,N.Y. POLICE DEPT,(null),(null),963152,171088,40.636249,-74.076013,"(40.636249, -74.076013)",,,,,,,,,,,,,,,,,,,,,,,,,,,,,,,,,,,,,
192,270649438,2023-07-01,1:50:00,2023-07-01,02:36:00,120,2023-07-01,105,ROBBERY,386,"ROBBERY,PERSONAL ELECTRONIC DEVICE",COMPLETED,FELONY,STATEN ISLAND,FRONT OF,RESIDENCE-HOUSE,N.Y. POLICE DEPT,(null),(null),961394,164734,40.618806,-74.082327,"(40.618806, -74.082327)",,,,,,,,,,,,,,,,,,,,,,,,,,,,,,,,,,,,,
193,270976425,2023-07-07,19:45:00,2023-07-07,20:00:00,121,2023-07-07,105,ROBBERY,389,"ROBBERY,DWELLING",COMPLETED,FELONY,STATEN ISLAND,INSIDE,RESIDENCE-HOUSE,N.Y. POLICE DEPT,(null),(null),937144,170669,40.635001,-74.169717,"(40.635001, -74.169717)",,,,,,,,,,,,,,,,,,,,,,,,,,,,,,,,,,,,,
194,271015360,2023-07-08,22:37:00,2023-07-08,22:38:00,123,2023-07-08,105,ROBBERY,377,"ROBBERY,BODEGA/CONVENIENCE STORE",COMPLETED,FELONY,STATEN ISLAND,INSIDE,GROCERY/BODEGA,N.Y. POLICE DEPT,(null),(null),922418,138524,40.546678,-74.222482,"(40.546678, -74.222482)",,,,,,,,,,,,,,,,,,,,,,,,,,,,,,,,,,,,,
195,271016897H1,2023-07-08,19:54:00,,(null),120,2023-07-08,101,MURDER & NON-NEGL. MANSLAUGHTER,,(null),COMPLETED,FELONY,STATEN ISLAND,INSIDE,GROCERY/BODEGA,N.Y. POLICE DEPT,(null),(null),949935,164099,40.617024,-74.123601,"(40.617024, -74.123601)",,,,,,,,,,,,,,,,,,,,,,,,,,,,,,,,,,,,,
196,271161153,2023-07-11,21:00:00,2023-07-11,21:35:00,120,2023-07-11,105,ROBBERY,397,"ROBBERY,OPEN AREA UNCLASSIFIED",COMPLETED,FELONY,STATEN ISLAND,(null),STREET,N.Y. POLICE DEPT,(null),(null),960980,166355,40.62325194,-74.08382565,"(40.62325193554174, -74.0838256512862)",,,,,,,,,,,,,,,,,,,,,,,,,,,,,,,,,,,,,
197,271136340,2023-07-11,14:30:00,2023-07-11,14:50:00,120,2023-07-11,105,ROBBERY,386,"ROBBERY,PERSONAL ELECTRONIC DEVICE",COMPLETED,FELONY,STATEN ISLAND,INSIDE,RESIDENCE - PUBLIC HOUSING,N.Y. HOUSING POLICE,(null),(null),951456,170457,40.634484,-74.118152,"(40.634484, -74.118152)",,,,,,,,,,,,,,,,,,,,,,,,,,,,,,,,,,,,,
198,271579265,2023-07-12,19:10:00,2023-07-12,19:20:00,123,2023-07-19,105,ROBBERY,396,"ROBBERY,BEGIN AS SHOPLIFTING",COMPLETED,FELONY,STATEN ISLAND,INSIDE,CHAIN STORE,N.Y. POLICE DEPT,(null),(null),921407,139009,40.548003,-74.226121,"(40.548003, -74.226121)",,,,,,,,,,,,,,,,,,,,,,,,,,,,,,,,,,,,,
199,271171731,2023-07-12,1:30:00,2023-07-12,02:25:00,120,2023-07-12,105,ROBBERY,399,"ROBBERY,COMMERCIAL UNCLASSIFIED",COMPLETED,FELONY,STATEN ISLAND,OPPOSITE OF,PARKING LOT/GARAGE (PRIVATE),N.Y. POLICE DEPT,(null),(null),948733,170819,40.635466,-74.127964,"(40.635466, -74.127964)",,,,,,,,,,,,,,,,,,,,,,,,,,,,,,,,,,,,,
200,271226444,2023-07-12,20:15:00,2023-07-12,20:35:00,122,2023-07-12,105,ROBBERY,382,"ROBBERY,NECKCHAIN/JEWELRY",COMPLETED,FELONY,STATEN ISLAND,REAR OF,FOOD SUPERMARKET,N.Y. POLICE DEPT,(null),(null),961052,159261,40.603782,-74.08354,"(40.603782, -74.08354)",,,,,,,,,,,,,,,,,,,,,,,,,,,,,,,,,,,,,
201,271612488,2023-07-14,11:00:00,2023-07-14,12:00:00,120,2023-07-20,104,RAPE,153,RAPE 3,COMPLETED,FELONY,STATEN ISLAND,FRONT OF,(null),N.Y. POLICE DEPT,SILVER LAKE PARK,(null),962873,174172,40.64472094,-74.07703272,"(40.6447209438691, -74.0770327198983)",,,,,,,,,,,,,,,,,,,,,,,,,,,,,,,,,,,,,
202,274118035,2023-07-15,0:00:00,2023-07-15,02:00:00,120,2023-09-08,104,RAPE,157,RAPE 1,COMPLETED,FELONY,STATEN ISLAND,INSIDE,RESIDENCE-HOUSE,N.Y. POLICE DEPT,(null),(null),962873,174172,40.64472094,-74.07703272,"(40.6447209438691, -74.0770327198983)",,,,,,,,,,,,,,,,,,,,,,,,,,,,,,,,,,,,,
203,271337369,2023-07-15,1:00:00,2023-07-15,01:30:00,122,2023-07-15,105,ROBBERY,375,"ROBBERY,PHARMACY",ATTEMPTED,FELONY,STATEN ISLAND,INSIDE,COMMERCIAL BUILDING,N.Y. POLICE DEPT,(null),(null),960339,156190,40.59535,-74.086097,"(40.59535, -74.086097)",,,,,,,,,,,,,,,,,,,,,,,,,,,,,,,,,,,,,
204,271380562,2023-07-16,2:30:00,,(null),122,2023-07-16,105,ROBBERY,397,"ROBBERY,OPEN AREA UNCLASSIFIED",COMPLETED,FELONY,STATEN ISLAND,(null),STREET,N.Y. POLICE DEPT,(null),(null),961823,157377,40.59861136,-74.08075909,"(40.59861135634237, -74.08075909261628)",,,,,,,,,,,,,,,,,,,,,,,,,,,,,,,,,,,,,
205,271410234,2023-07-16,21:00:00,2023-07-16,21:30:00,122,2023-07-16,105,ROBBERY,396,"ROBBERY,BEGIN AS SHOPLIFTING",COMPLETED,FELONY,STATEN ISLAND,INSIDE,FOOD SUPERMARKET,N.Y. POLICE DEPT,(null),(null),952887,146000,40.567358,-74.112884,"(40.567358, -74.112884)",,,,,,,,,,,,,,,,,,,,,,,,,,,,,,,,,,,,,
206,271442074,2023-07-17,13:50:00,2023-07-17,14:00:00,121,2023-07-17,105,ROBBERY,396,"ROBBERY,BEGIN AS SHOPLIFTING",COMPLETED,FELONY,STATEN ISLAND,INSIDE,DEPARTMENT STORE,N.Y. POLICE DEPT,(null),(null),938881,167697,40.626851,-74.163438,"(40.626851, -74.163438)",,,,,,,,,,,,,,,,,,,,,,,,,,,,,,,,,,,,,
207,271522220,2023-07-18,22:30:00,2023-07-18,22:47:00,120,2023-07-18,105,ROBBERY,386,"ROBBERY,PERSONAL ELECTRONIC DEVICE",COMPLETED,FELONY,STATEN ISLAND,FRONT OF,STREET,N.Y. POLICE DEPT,(null),(null),963100,171386,40.637067,-74.076204,"(40.637067, -74.076204)",,,,,,,,,,,,,,,,,,,,,,,,,,,,,,,,,,,,,
208,271812183H1,2023-07-23,22:44:00,,(null),121,2023-07-23,101,MURDER & NON-NEGL. MANSLAUGHTER,,(null),COMPLETED,FELONY,STATEN ISLAND,INSIDE,PVT HOUSE,N.Y. POLICE DEPT,(null),(null),940406,171145,40.636323,-74.157967,"(40.636323, -74.157967)",,,,,,,,,,,,,,,,,,,,,,,,,,,,,,,,,,,,,
209,271772343,2023-07-23,23:30:00,2023-07-24,00:00:00,122,2023-07-24,105,ROBBERY,399,"ROBBERY,COMMERCIAL UNCLASSIFIED",COMPLETED,FELONY,STATEN ISLAND,INSIDE,HOTEL/MOTEL,N.Y. POLICE DEPT,(null),(null),960595,156855,40.597176,-74.085176,"(40.597176, -74.085176)",,,,,,,,,,,,,,,,,,,,,,,,,,,,,,,,,,,,,
210,271757495,2023-07-23,15:30:00,2023-07-23,15:35:00,120,2023-07-23,105,ROBBERY,396,"ROBBERY,BEGIN AS SHOPLIFTING",COMPLETED,FELONY,STATEN ISLAND,INSIDE,COMMERCIAL BUILDING,N.Y. POLICE DEPT,(null),(null),964289,165772,40.62166,-74.071903,"(40.62166, -74.071903)",,,,,,,,,,,,,,,,,,,,,,,,,,,,,,,,,,,,,
211,271755367,2023-07-23,15:45:00,2023-07-23,15:59:00,120,2023-07-23,105,ROBBERY,397,"ROBBERY,OPEN AREA UNCLASSIFIED",COMPLETED,FELONY,STATEN ISLAND,(null),STREET,N.Y. POLICE DEPT,(null),(null),963577,168351,40.62873698,-74.07447658,"(40.62873697527671, -74.07447658166156)",,,,,,,,,,,,,,,,,,,,,,,,,,,,,,,,,,,,,
212,273035030H1,2023-07-24,18:40:00,,(null),,2023-07-24,101,MURDER & NON-NEGL. MANSLAUGHTER,,(null),COMPLETED,FELONY,STATEN ISLAND,OUTSIDE,(null),N.Y. POLICE DEPT,(null),(null),947696,172531,40.64015888,-74.13171207,"(40.64015887857324, -74.13171207190561)",,,,,,,,,,,,,,,,,,,,,,,,,,,,,,,,,,,,,
213,271804604,2023-07-24,15:30:00,2023-07-24,15:45:00,123,2023-07-24,105,ROBBERY,396,"ROBBERY,BEGIN AS SHOPLIFTING",COMPLETED,FELONY,STATEN ISLAND,INSIDE,COMMERCIAL BUILDING,N.Y. POLICE DEPT,(null),(null),915513,124947,40.50936,-74.247188,"(40.50936, -74.247188)",,,,,,,,,,,,,,,,,,,,,,,,,,,,,,,,,,,,,
214,271826173,2023-07-25,6:00:00,2023-07-25,06:19:00,121,2023-07-25,105,ROBBERY,390,"ROBBERY,HOME INVASION",COMPLETED,FELONY,STATEN ISLAND,INSIDE,RESIDENCE-HOUSE,N.Y. POLICE DEPT,(null),(null),939054,166916,40.624707,-74.162813,"(40.624707, -74.162813)",,,,,,,,,,,,,,,,,,,,,,,,,,,,,,,,,,,,,
215,271894148,2023-07-25,16:00:00,2023-07-25,16:31:00,121,2023-07-25,105,ROBBERY,397,"ROBBERY,OPEN AREA UNCLASSIFIED",COMPLETED,FELONY,STATEN ISLAND,FRONT OF,STREET,N.Y. POLICE DEPT,(null),(null),943576,169687,40.632336,-74.146537,"(40.632336, -74.146537)",,,,,,,,,,,,,,,,,,,,,,,,,,,,,,,,,,,,,
216,271858743,2023-07-25,12:42:00,2023-07-25,13:42:00,121,2023-07-25,105,ROBBERY,396,"ROBBERY,BEGIN AS SHOPLIFTING",COMPLETED,FELONY,STATEN ISLAND,INSIDE,CHAIN STORE,N.Y. POLICE DEPT,(null),(null),930738,158560,40.601727,-74.192701,"(40.601727, -74.192701)",,,,,,,,,,,,,,,,,,,,,,,,,,,,,,,,,,,,,
217,271866431,2023-07-25,12:00:00,2023-07-25,17:00:00,123,2023-07-25,105,ROBBERY,382,"ROBBERY,NECKCHAIN/JEWELRY",COMPLETED,FELONY,STATEN ISLAND,REAR OF,BAR/NIGHT CLUB,N.Y. POLICE DEPT,(null),(null),935162,136291,40.540629,-74.17661,"(40.540629, -74.17661)",,,,,,,,,,,,,,,,,,,,,,,,,,,,,,,,,,,,,
218,271996534,2023-07-27,17:27:00,2023-07-27,18:00:00,121,2023-07-27,105,ROBBERY,396,"ROBBERY,BEGIN AS SHOPLIFTING",COMPLETED,FELONY,STATEN ISLAND,INSIDE,(null),N.Y. POLICE DEPT,(null),(null),942827,166373,40.623238,-74.149217,"(40.623238, -74.149217)",,,,,,,,,,,,,,,,,,,,,,,,,,,,,,,,,,,,,
219,272100641,2023-07-27,20:30:00,2023-07-27,20:45:00,121,2023-07-28,105,ROBBERY,397,"ROBBERY,OPEN AREA UNCLASSIFIED",COMPLETED,FELONY,STATEN ISLAND,(null),BRIDGE,PORT AUTHORITY,(null),(null),942428,166535,40.6236888,-74.15065779,"(40.6236888, -74.15065779)",,,,,,,,,,,,,,,,,,,,,,,,,,,,,,,,,,,,,
220,271996533,2023-07-27,17:30:00,2023-07-27,17:42:00,121,2023-07-27,105,ROBBERY,396,"ROBBERY,BEGIN AS SHOPLIFTING",COMPLETED,FELONY,STATEN ISLAND,INSIDE,GROCERY/BODEGA,N.Y. POLICE DEPT,(null),(null),946836,172574,40.640274,-74.134809,"(40.640274, -74.134809)",,,,,,,,,,,,,,,,,,,,,,,,,,,,,,,,,,,,,
221,272096922H1,2023-07-29,4:29:00,,(null),120,2023-07-29,101,MURDER & NON-NEGL. MANSLAUGHTER,,(null),COMPLETED,FELONY,STATEN ISLAND,OUTSIDE,(null),N.Y. POLICE DEPT,(null),(null),956936,174025,40.644294,-74.098423,"(40.644294, -74.098423)",,,,,,,,,,,,,,,,,,,,,,,,,,,,,,,,,,,,,
222,272144089,2023-07-31,8:30:00,2023-07-31,09:00:00,120,2023-07-31,105,ROBBERY,389,"ROBBERY,DWELLING",COMPLETED,FELONY,STATEN ISLAND,INSIDE,RESIDENCE - APT. HOUSE,N.Y. POLICE DEPT,(null),(null),961826,174435,40.645434,-74.080804,"(40.645434, -74.080804)",,,,,,,,,,,,,,,,,,,,,,,,,,,,,,,,,,,,,
223,272202804,2023-08-01,14:38:00,2023-08-01,14:41:00,121,2023-08-01,105,ROBBERY,395,"ROBBERY,ON BUS/ OR BUS DRIVER",COMPLETED,FELONY,STATEN ISLAND,(null),STREET,N.Y. POLICE DEPT,(null),(null),947516,162432,40.61243853,-74.13230569,"(40.61243853139445, -74.13230568908097)",,,,,,,,,,,,,,,,,,,,,,,,,,,,,,,,,,,,,
224,272283075,2023-08-01,9:02:00,2023-08-01,09:10:00,121,2023-08-02,105,ROBBERY,388,"ROBBERY,RESIDENTIAL COMMON AREA",COMPLETED,FELONY,STATEN ISLAND,INSIDE,RESIDENCE-HOUSE,N.Y. POLICE DEPT,(null),(null),944862,169623,40.632165,-74.141903,"(40.632165, -74.141903)",,,,,,,,,,,,,,,,,,,,,,,,,,,,,,,,,,,,,
225,272421283,2023-08-05,9:25:00,2023-08-05,09:27:00,121,2023-08-05,105,ROBBERY,366,"ROBBERY,BICYCLE",COMPLETED,FELONY,STATEN ISLAND,REAR OF,CHAIN STORE,N.Y. POLICE DEPT,(null),(null),946746,167201,40.625526,-74.135102,"(40.625526, -74.135102)",,,,,,,,,,,,,,,,,,,,,,,,,,,,,,,,,,,,,
226,272428006,2023-08-05,11:30:00,2023-08-05,11:40:00,121,2023-08-05,105,ROBBERY,386,"ROBBERY,PERSONAL ELECTRONIC DEVICE",COMPLETED,FELONY,STATEN ISLAND,FRONT OF,STREET,N.Y. POLICE DEPT,(null),(null),948592,159384,40.604079,-74.128414,"(40.604079, -74.128414)",,,,,,,,,,,,,,,,,,,,,,,,,,,,,,,,,,,,,
227,272435883,2023-08-05,19:45:00,2023-08-05,19:53:00,120,2023-08-05,105,ROBBERY,398,"ROBBERY,PUBLIC PLACE INSIDE",COMPLETED,FELONY,STATEN ISLAND,INSIDE,GROCERY/BODEGA,N.Y. POLICE DEPT,(null),(null),960256,169942,40.633098,-74.086445,"(40.633098, -74.086445)",,,,,,,,,,,,,,,,,,,,,,,,,,,,,,,,,,,,,
228,272449502,2023-08-06,6:35:00,2023-08-06,06:40:00,120,2023-08-06,105,ROBBERY,397,"ROBBERY,OPEN AREA UNCLASSIFIED",ATTEMPTED,FELONY,STATEN ISLAND,FRONT OF,CHURCH,N.Y. POLICE DEPT,(null),(null),952089,170531,40.634688,-74.115874,"(40.634688, -74.115874)",,,,,,,,,,,,,,,,,,,,,,,,,,,,,,,,,,,,,
229,272498240,2023-08-06,10:00:00,2023-08-07,10:05:00,122,2023-08-07,105,ROBBERY,398,"ROBBERY,PUBLIC PLACE INSIDE",COMPLETED,FELONY,STATEN ISLAND,FRONT OF,BUS (NYC TRANSIT),N.Y. POLICE DEPT,(null),(null),967012,156440,40.596053,-74.062071,"(40.596053, -74.062071)",,,,,,,,,,,,,,,,,,,,,,,,,,,,,,,,,,,,,
230,272561989,2023-08-08,16:43:00,2023-08-08,16:50:00,122,2023-08-08,105,ROBBERY,386,"ROBBERY,PERSONAL ELECTRONIC DEVICE",COMPLETED,FELONY,STATEN ISLAND,INSIDE,RESIDENCE-HOUSE,N.Y. POLICE DEPT,(null),(null),942359,139524,40.549539,-74.150735,"(40.549539, -74.150735)",,,,,,,,,,,,,,,,,,,,,,,,,,,,,,,,,,,,,
231,272623331,2023-08-09,16:00:00,2023-08-09,16:05:00,120,2023-08-09,105,ROBBERY,377,"ROBBERY,BODEGA/CONVENIENCE STORE",COMPLETED,FELONY,STATEN ISLAND,INSIDE,GROCERY/BODEGA,N.Y. POLICE DEPT,(null),(null),962255,171807,40.638222,-74.079249,"(40.638222, -74.079249)",,,,,,,,,,,,,,,,,,,,,,,,,,,,,,,,,,,,,
232,272664352,2023-08-10,7:55:00,2023-08-10,08:00:00,120,2023-08-10,105,ROBBERY,377,"ROBBERY,BODEGA/CONVENIENCE STORE",COMPLETED,FELONY,STATEN ISLAND,INSIDE,GROCERY/BODEGA,N.Y. POLICE DEPT,(null),(null),963024,171638,40.63776,-74.076476,"(40.63776, -74.076476)",,,,,,,,,,,,,,,,,,,,,,,,,,,,,,,,,,,,,
233,272672343,2023-08-10,7:23:00,2023-08-10,07:40:00,122,2023-08-10,105,ROBBERY,397,"ROBBERY,OPEN AREA UNCLASSIFIED",COMPLETED,FELONY,STATEN ISLAND,FRONT OF,RESIDENCE - PUBLIC HOUSING,N.Y. HOUSING POLICE,(null),(null),961968,156436,40.59603,-74.080232,"(40.59603, -74.080232)",,,,,,,,,,,,,,,,,,,,,,,,,,,,,,,,,,,,,
234,272805043,2023-08-12,23:50:00,2023-08-12,23:59:00,121,2023-08-13,105,ROBBERY,382,"ROBBERY,NECKCHAIN/JEWELRY",COMPLETED,FELONY,STATEN ISLAND,FRONT OF,GROCERY/BODEGA,N.Y. POLICE DEPT,(null),(null),944128,167103,40.625247,-74.144534,"(40.625247, -74.144534)",,,,,,,,,,,,,,,,,,,,,,,,,,,,,,,,,,,,,
235,272805041,2023-08-13,1:10:00,2023-08-13,01:31:00,121,2023-08-13,105,ROBBERY,389,"ROBBERY,DWELLING",COMPLETED,FELONY,STATEN ISLAND,INSIDE,RESIDENCE-HOUSE,N.Y. POLICE DEPT,(null),(null),948238,171255,40.63666,-74.12975,"(40.63666, -74.12975)",,,,,,,,,,,,,,,,,,,,,,,,,,,,,,,,,,,,,
236,273118571,2023-08-18,20:50:00,2023-08-18,20:55:00,122,2023-08-18,105,ROBBERY,397,"ROBBERY,OPEN AREA UNCLASSIFIED",ATTEMPTED,FELONY,STATEN ISLAND,(null),STREET,N.Y. POLICE DEPT,(null),(null),962288,155793,40.59426476,-74.07907949,"(40.594264762063645, -74.0790794903085)",,,,,,,,,,,,,,,,,,,,,,,,,,,,,,,,,,,,,
237,273093267,2023-08-18,9:25:00,2023-08-18,09:36:00,120,2023-08-18,105,ROBBERY,396,"ROBBERY,BEGIN AS SHOPLIFTING",COMPLETED,FELONY,STATEN ISLAND,INSIDE,DEPARTMENT STORE,N.Y. POLICE DEPT,(null),(null),962133,171658,40.637813,-74.079688,"(40.637813, -74.079688)",,,,,,,,,,,,,,,,,,,,,,,,,,,,,,,,,,,,,
238,273107777,2023-08-18,16:20:00,2023-08-18,16:45:00,120,2023-08-18,105,ROBBERY,399,"ROBBERY,COMMERCIAL UNCLASSIFIED",COMPLETED,FELONY,STATEN ISLAND,INSIDE,BEAUTY & NAIL SALON,N.Y. POLICE DEPT,(null),(null),962958,168766,40.629876,-74.076705,"(40.629876, -74.076705)",,,,,,,,,,,,,,,,,,,,,,,,,,,,,,,,,,,,,
239,273113122,2023-08-18,18:30:00,2023-08-18,18:40:00,122,2023-08-18,105,ROBBERY,396,"ROBBERY,BEGIN AS SHOPLIFTING",COMPLETED,FELONY,STATEN ISLAND,FRONT OF,GROCERY/BODEGA,N.Y. POLICE DEPT,(null),(null),955133,148921,40.575382,-74.104812,"(40.575382, -74.104812)",,,,,,,,,,,,,,,,,,,,,,,,,,,,,,,,,,,,,
240,273194088,2023-08-21,1:15:00,2023-08-21,01:20:00,121,2023-08-21,105,ROBBERY,397,"ROBBERY,OPEN AREA UNCLASSIFIED",COMPLETED,FELONY,STATEN ISLAND,(null),STREET,N.Y. POLICE DEPT,(null),(null),932091,158698,40.60211212,-74.18783328,"(40.60211211546829, -74.18783328164002)",,,,,,,,,,,,,,,,,,,,,,,,,,,,,,,,,,,,,
241,273232741,2023-08-21,22:05:00,2023-08-21,22:12:00,120,2023-08-21,105,ROBBERY,390,"ROBBERY,HOME INVASION",COMPLETED,FELONY,STATEN ISLAND,FRONT OF,RESIDENCE-HOUSE,N.Y. POLICE DEPT,(null),(null),953019,171058,40.636139,-74.112523,"(40.636139, -74.112523)",,,,,,,,,,,,,,,,,,,,,,,,,,,,,,,,,,,,,
242,273350077,2023-08-23,13:50:00,2023-08-23,14:00:00,120,2023-08-23,105,ROBBERY,396,"ROBBERY,BEGIN AS SHOPLIFTING",COMPLETED,FELONY,STATEN ISLAND,INSIDE,COMMERCIAL BUILDING,N.Y. POLICE DEPT,(null),(null),962387,167289,40.625819,-74.078759,"(40.625819, -74.078759)",,,,,,,,,,,,,,,,,,,,,,,,,,,,,,,,,,,,,
243,273390568,2023-08-24,13:00:00,2023-08-24,13:10:00,121,2023-08-24,105,ROBBERY,386,"ROBBERY,PERSONAL ELECTRONIC DEVICE",COMPLETED,FELONY,STATEN ISLAND,FRONT OF,OTHER,N.Y. POLICE DEPT,(null),(null),947801,172713,40.640659,-74.131333,"(40.640659, -74.131333)",,,,,,,,,,,,,,,,,,,,,,,,,,,,,,,,,,,,,
244,273367658,2023-08-24,2:40:00,2023-08-24,02:47:00,120,2023-08-24,105,ROBBERY,397,"ROBBERY,OPEN AREA UNCLASSIFIED",COMPLETED,FELONY,STATEN ISLAND,FRONT OF,STREET,N.Y. POLICE DEPT,(null),(null),961612,166618,40.623977,-74.081548,"(40.623977, -74.081548)",,,,,,,,,,,,,,,,,,,,,,,,,,,,,,,,,,,,,
245,273434947,2023-08-25,11:10:00,2023-08-25,11:14:00,121,2023-08-25,105,ROBBERY,380,"ROBBERY,CAR JACKING",COMPLETED,FELONY,STATEN ISLAND,REAR OF,STREET,N.Y. POLICE DEPT,(null),(null),936403,163867,40.616325,-74.172339,"(40.616325, -74.172339)",,,,,,,,,,,,,,,,,,,,,,,,,,,,,,,,,,,,,
246,273460707,2023-08-25,23:06:00,2023-08-25,23:10:00,120,2023-08-25,105,ROBBERY,384,"ROBBERY,POCKETBOOK/CARRIED BAG",COMPLETED,FELONY,STATEN ISLAND,OPPOSITE OF,STREET,N.Y. POLICE DEPT,(null),(null),950002,166616,40.623933,-74.123371,"(40.623933, -74.123371)",,,,,,,,,,,,,,,,,,,,,,,,,,,,,,,,,,,,,
247,274090896H1,2023-08-27,12:41:00,,(null),121,2023-08-27,101,MURDER & NON-NEGL. MANSLAUGHTER,,(null),COMPLETED,FELONY,STATEN ISLAND,INSIDE,MULTI DWELL - APT BUILD,N.Y. POLICE DEPT,(null),(null),936721,172119,40.638977,-74.171252,"(40.638977, -74.171252)",,,,,,,,,,,,,,,,,,,,,,,,,,,,,,,,,,,,,
248,273502597,2023-08-27,2:05:00,2023-08-27,02:12:00,121,2023-08-27,105,ROBBERY,397,"ROBBERY,OPEN AREA UNCLASSIFIED",COMPLETED,FELONY,STATEN ISLAND,(null),STREET,N.Y. POLICE DEPT,(null),(null),939697,167579,40.62653009,-74.16050147,"(40.62653008691477, -74.16050146960687)",,,,,,,,,,,,,,,,,,,,,,,,,,,,,,,,,,,,,
249,273509304,2023-08-27,5:25:00,2023-08-27,05:35:00,122,2023-08-27,104,RAPE,157,RAPE 1,COMPLETED,FELONY,STATEN ISLAND,REAR OF,PARKING LOT/GARAGE (PRIVATE),N.Y. POLICE DEPT,(null),(null),954827,148519,40.57428569,-74.10591441,"(40.5742856881925, -74.1059144051212)",,,,,,,,,,,,,,,,,,,,,,,,,,,,,,,,,,,,,
250,273567681,2023-08-28,12:30:00,2023-08-28,12:35:00,121,2023-08-28,105,ROBBERY,397,"ROBBERY,OPEN AREA UNCLASSIFIED",COMPLETED,FELONY,STATEN ISLAND,FRONT OF,RESIDENCE-HOUSE,N.Y. POLICE DEPT,(null),(null),943957,171279,40.636706,-74.145174,"(40.636706, -74.145174)",,,,,,,,,,,,,,,,,,,,,,,,,,,,,,,,,,,,,
251,273813098,2023-08-28,21:55:00,2023-08-31,22:00:00,121,2023-08-31,104,RAPE,153,RAPE 3,COMPLETED,FELONY,STATEN ISLAND,INSIDE,RESIDENCE - APT. HOUSE,N.Y. POLICE DEPT,(null),(null),942822,166353,40.62318838,-74.14923769,"(40.6231883776008, -74.1492376947323)",,,,,,,,,,,,,,,,,,,,,,,,,,,,,,,,,,,,,
252,273571489,2023-08-28,17:28:00,2023-08-28,17:47:00,121,2023-08-28,105,ROBBERY,396,"ROBBERY,BEGIN AS SHOPLIFTING",COMPLETED,FELONY,STATEN ISLAND,INSIDE,GROCERY/BODEGA,N.Y. POLICE DEPT,(null),(null),947239,171747,40.638005,-74.133351,"(40.638005, -74.133351)",,,,,,,,,,,,,,,,,,,,,,,,,,,,,,,,,,,,,
253,273678498,2023-08-30,13:37:00,2023-08-30,13:37:00,120,2023-08-30,105,ROBBERY,396,"ROBBERY,BEGIN AS SHOPLIFTING",COMPLETED,FELONY,STATEN ISLAND,INSIDE,GROCERY/BODEGA,N.Y. POLICE DEPT,(null),(null),963181,171777,40.638142,-74.075912,"(40.638142, -74.075912)",,,,,,,,,,,,,,,,,,,,,,,,,,,,,,,,,,,,,
254,273777174,2023-09-01,9:12:00,2023-09-01,10:27:00,121,2023-09-01,105,ROBBERY,389,"ROBBERY,DWELLING",COMPLETED,FELONY,STATEN ISLAND,INSIDE,RESIDENCE - APT. HOUSE,N.Y. POLICE DEPT,(null),(null),945579,170937,40.635775,-74.139329,"(40.635775, -74.139329)",,,,,,,,,,,,,,,,,,,,,,,,,,,,,,,,,,,,,
255,273762248,2023-09-01,4:06:00,2023-09-01,04:32:00,120,2023-09-01,105,ROBBERY,397,"ROBBERY,OPEN AREA UNCLASSIFIED",ATTEMPTED,FELONY,STATEN ISLAND,FRONT OF,STREET,N.Y. POLICE DEPT,(null),(null),963713,173753,40.643566,-74.074001,"(40.643566, -74.074001)",,,,,,,,,,,,,,,,,,,,,,,,,,,,,,,,,,,,,
256,273794644,2023-09-01,21:50:00,2023-09-01,21:57:00,120,2023-09-01,105,ROBBERY,397,"ROBBERY,OPEN AREA UNCLASSIFIED",COMPLETED,FELONY,STATEN ISLAND,(null),STREET,N.Y. POLICE DEPT,(null),(null),950223,162661,40.6130779,-74.12255699,"(40.61307789748327, -74.12255699238122)",,,,,,,,,,,,,,,,,,,,,,,,,,,,,,,,,,,,,
257,273762249,2023-09-01,4:06:00,2023-09-01,04:32:00,120,2023-09-01,105,ROBBERY,397,"ROBBERY,OPEN AREA UNCLASSIFIED",ATTEMPTED,FELONY,STATEN ISLAND,(null),STREET,N.Y. POLICE DEPT,(null),(null),963295,172328,40.63965233,-74.07550486,"(40.639652329285994, -74.07550486449259)",,,,,,,,,,,,,,,,,,,,,,,,,,,,,,,,,,,,,
258,273848065,2023-09-02,20:55:00,2023-09-02,21:05:00,120,2023-09-02,105,ROBBERY,396,"ROBBERY,BEGIN AS SHOPLIFTING",COMPLETED,FELONY,STATEN ISLAND,INSIDE,GROCERY/BODEGA,N.Y. POLICE DEPT,(null),(null),960256,169942,40.633098,-74.086445,"(40.633098, -74.086445)",,,,,,,,,,,,,,,,,,,,,,,,,,,,,,,,,,,,,
259,273888539,2023-09-04,17:55:00,2023-09-04,18:04:00,121,2023-09-04,105,ROBBERY,389,"ROBBERY,DWELLING",COMPLETED,FELONY,STATEN ISLAND,INSIDE,RESIDENCE-HOUSE,N.Y. POLICE DEPT,(null),(null),943715,168270,40.628448,-74.14603,"(40.628448, -74.14603)",,,,,,,,,,,,,,,,,,,,,,,,,,,,,,,,,,,,,
260,273934745,2023-09-05,17:00:00,2023-09-05,17:10:00,121,2023-09-05,105,ROBBERY,396,"ROBBERY,BEGIN AS SHOPLIFTING",COMPLETED,FELONY,STATEN ISLAND,INSIDE,GAS STATION,N.Y. POLICE DEPT,(null),(null),942127,167185,40.625462,-74.151743,"(40.625462, -74.151743)",,,,,,,,,,,,,,,,,,,,,,,,,,,,,,,,,,,,,
261,273928183,2023-09-05,15:27:00,2023-09-05,15:31:00,121,2023-09-05,105,ROBBERY,396,"ROBBERY,BEGIN AS SHOPLIFTING",COMPLETED,FELONY,STATEN ISLAND,INSIDE,DEPARTMENT STORE,N.Y. POLICE DEPT,(null),(null),938881,167697,40.626851,-74.163438,"(40.626851, -74.163438)",,,,,,,,,,,,,,,,,,,,,,,,,,,,,,,,,,,,,
262,273928184,2023-09-05,15:00:00,2023-09-05,15:26:00,122,2023-09-05,105,ROBBERY,388,"ROBBERY,RESIDENTIAL COMMON AREA",COMPLETED,FELONY,STATEN ISLAND,INSIDE,RESIDENCE - APT. HOUSE,N.Y. POLICE DEPT,(null),(null),954930,145835,40.566913,-74.10553,"(40.566913, -74.10553)",,,,,,,,,,,,,,,,,,,,,,,,,,,,,,,,,,,,,
263,274115682,2023-09-08,18:46:00,2023-09-08,18:53:00,121,2023-09-08,105,ROBBERY,396,"ROBBERY,BEGIN AS SHOPLIFTING",COMPLETED,FELONY,STATEN ISLAND,INSIDE,DEPARTMENT STORE,N.Y. POLICE DEPT,(null),(null),937288,151471,40.582305,-74.169067,"(40.582305, -74.169067)",,,,,,,,,,,,,,,,,,,,,,,,,,,,,,,,,,,,,
264,274111454,2023-09-08,11:45:00,2023-09-08,11:55:00,122,2023-09-08,105,ROBBERY,396,"ROBBERY,BEGIN AS SHOPLIFTING",COMPLETED,FELONY,STATEN ISLAND,INSIDE,SMOKE SHOP,N.Y. POLICE DEPT,(null),(null),950717,159421,40.604188,-74.12076,"(40.604188, -74.12076)",,,,,,,,,,,,,,,,,,,,,,,,,,,,,,,,,,,,,
265,274111453,2023-09-08,15:35:00,2023-09-08,15:45:00,120,2023-09-08,105,ROBBERY,397,"ROBBERY,OPEN AREA UNCLASSIFIED",ATTEMPTED,FELONY,STATEN ISLAND,FRONT OF,PARKING LOT/GARAGE (PUBLIC),N.Y. POLICE DEPT,(null),(null),963108,169401,40.63162,-74.076166,"(40.63162, -74.076166)",,,,,,,,,,,,,,,,,,,,,,,,,,,,,,,,,,,,,
266,274157979,2023-09-09,22:09:00,2023-09-09,22:16:00,121,2023-09-09,105,ROBBERY,365,"ROBBERY,LIQUOR STORE",COMPLETED,FELONY,STATEN ISLAND,INSIDE,LIQUOR STORE,N.Y. POLICE DEPT,(null),(null),938881,167697,40.626851,-74.163438,"(40.626851, -74.163438)",,,,,,,,,,,,,,,,,,,,,,,,,,,,,,,,,,,,,
267,274155918,2023-09-09,19:30:00,2023-09-09,19:52:00,120,2023-09-09,105,ROBBERY,388,"ROBBERY,RESIDENTIAL COMMON AREA",COMPLETED,FELONY,STATEN ISLAND,FRONT OF,STREET,N.Y. POLICE DEPT,(null),(null),962219,163860,40.616409,-74.079354,"(40.616409, -74.079354)",,,,,,,,,,,,,,,,,,,,,,,,,,,,,,,,,,,,,
268,274164574,2023-09-10,1:04:00,2023-09-10,01:15:00,120,2023-09-10,105,ROBBERY,397,"ROBBERY,OPEN AREA UNCLASSIFIED",COMPLETED,FELONY,STATEN ISLAND,FRONT OF,STREET,N.Y. POLICE DEPT,(null),(null),963729,168399,40.62887,-74.073928,"(40.62887, -74.073928)",,,,,,,,,,,,,,,,,,,,,,,,,,,,,,,,,,,,,
269,274192333,2023-09-10,21:01:00,2023-09-10,21:03:00,121,2023-09-10,105,ROBBERY,396,"ROBBERY,BEGIN AS SHOPLIFTING",COMPLETED,FELONY,STATEN ISLAND,INSIDE,LIQUOR STORE,N.Y. POLICE DEPT,(null),(null),938881,167697,40.626851,-74.163438,"(40.626851, -74.163438)",,,,,,,,,,,,,,,,,,,,,,,,,,,,,,,,,,,,,
270,274218337,2023-09-11,12:35:00,2023-09-11,12:45:00,122,2023-09-11,105,ROBBERY,377,"ROBBERY,BODEGA/CONVENIENCE STORE",COMPLETED,FELONY,STATEN ISLAND,INSIDE,GROCERY/BODEGA,N.Y. POLICE DEPT,(null),(null),961629,157369,40.59859,-74.081457,"(40.59859, -74.081457)",,,,,,,,,,,,,,,,,,,,,,,,,,,,,,,,,,,,,
271,275783819,2023-09-12,22:30:00,2023-09-12,23:00:00,121,2023-10-11,104,RAPE,157,RAPE 1,COMPLETED,FELONY,STATEN ISLAND,INSIDE,RESTAURANT/DINER,N.Y. POLICE DEPT,(null),(null),942822,166353,40.62318838,-74.14923769,"(40.6231883776008, -74.1492376947323)",,,,,,,,,,,,,,,,,,,,,,,,,,,,,,,,,,,,,
272,274452480,2023-09-14,22:00:00,2023-09-14,22:07:00,120,2023-09-14,105,ROBBERY,397,"ROBBERY,OPEN AREA UNCLASSIFIED",COMPLETED,FELONY,STATEN ISLAND,FRONT OF,RESIDENCE - APT. HOUSE,N.Y. POLICE DEPT,(null),(null),957487,169813,40.632736,-74.096419,"(40.632736, -74.096419)",,,,,,,,,,,,,,,,,,,,,,,,,,,,,,,,,,,,,
273,274464086,2023-09-15,2:39:00,2023-09-15,03:05:00,121,2023-09-15,105,ROBBERY,397,"ROBBERY,OPEN AREA UNCLASSIFIED",ATTEMPTED,FELONY,STATEN ISLAND,(null),STREET,N.Y. POLICE DEPT,(null),(null),946193,169847,40.63278555,-74.13711256,"(40.63278554871697, -74.1371125638854)",,,,,,,,,,,,,,,,,,,,,,,,,,,,,,,,,,,,,
274,274506913,2023-09-15,20:15:00,2023-09-15,20:30:00,123,2023-09-15,105,ROBBERY,397,"ROBBERY,OPEN AREA UNCLASSIFIED",COMPLETED,FELONY,STATEN ISLAND,(null),STREET,N.Y. POLICE DEPT,(null),(null),924132,129944,40.52313777,-74.21623925,"(40.52313776879354, -74.21623924866687)",,,,,,,,,,,,,,,,,,,,,,,,,,,,,,,,,,,,,
275,274616739,2023-09-18,19:00:00,2023-09-19,01:45:00,121,2023-09-18,104,RAPE,157,RAPE 1,COMPLETED,FELONY,STATEN ISLAND,INSIDE,RESIDENCE - APT. HOUSE,N.Y. POLICE DEPT,(null),(null),942822,166353,40.62318838,-74.14923769,"(40.6231883776008, -74.1492376947323)",,,,,,,,,,,,,,,,,,,,,,,,,,,,,,,,,,,,,
276,274729270,2023-09-20,23:20:00,2023-09-20,23:30:00,120,2023-09-21,105,ROBBERY,386,"ROBBERY,PERSONAL ELECTRONIC DEVICE",COMPLETED,FELONY,STATEN ISLAND,OPPOSITE OF,STREET,N.Y. POLICE DEPT,(null),(null),963772,166550,40.623796,-74.073767,"(40.623796, -74.073767)",,,,,,,,,,,,,,,,,,,,,,,,,,,,,,,,,,,,,
277,274873182H1,2023-09-22,16:40:00,,(null),120,2023-09-22,101,MURDER & NON-NEGL. MANSLAUGHTER,,(null),COMPLETED,FELONY,STATEN ISLAND,OUTSIDE,(null),N.Y. POLICE DEPT,(null),(null),956799,163235,40.614679,-74.098873,"(40.614679, -74.098873)",,,,,,,,,,,,,,,,,,,,,,,,,,,,,,,,,,,,,
278,274853147,2023-09-23,20:30:00,2023-09-23,20:45:00,120,2023-09-23,105,ROBBERY,397,"ROBBERY,OPEN AREA UNCLASSIFIED",COMPLETED,FELONY,STATEN ISLAND,FRONT OF,RESIDENCE-HOUSE,N.Y. POLICE DEPT,(null),(null),962064,172130,40.639106,-74.079939,"(40.639106, -74.079939)",,,,,,,,,,,,,,,,,,,,,,,,,,,,,,,,,,,,,
279,275022162,2023-09-26,19:45:00,2023-09-26,20:17:00,121,2023-09-27,105,ROBBERY,396,"ROBBERY,BEGIN AS SHOPLIFTING",COMPLETED,FELONY,STATEN ISLAND,INSIDE,DEPARTMENT STORE,N.Y. POLICE DEPT,(null),(null),937542,153365,40.587505,-74.168164,"(40.587505, -74.168164)",,,,,,,,,,,,,,,,,,,,,,,,,,,,,,,,,,,,,
280,274981812,2023-09-26,17:15:00,2023-09-26,17:45:00,120,2023-09-26,105,ROBBERY,390,"ROBBERY,HOME INVASION",COMPLETED,FELONY,STATEN ISLAND,INSIDE,RESIDENCE - APT. HOUSE,N.Y. POLICE DEPT,(null),(null),961394,164734,40.618806,-74.082327,"(40.618806, -74.082327)",,,,,,,,,,,,,,,,,,,,,,,,,,,,,,,,,,,,,
281,274942436,2023-09-26,1:50:00,2023-09-26,02:11:00,120,2023-09-26,105,ROBBERY,389,"ROBBERY,DWELLING",COMPLETED,FELONY,STATEN ISLAND,INSIDE,RESIDENCE-HOUSE,N.Y. POLICE DEPT,(null),(null),965529,162124,40.61165,-74.067426,"(40.61165, -74.067426)",,,,,,,,,,,,,,,,,,,,,,,,,,,,,,,,,,,,,
282,275040505,2023-09-27,17:17:00,2023-09-27,18:40:00,122,2023-09-27,105,ROBBERY,386,"ROBBERY,PERSONAL ELECTRONIC DEVICE",COMPLETED,FELONY,STATEN ISLAND,FRONT OF,STREET,N.Y. POLICE DEPT,(null),(null),952608,161649,40.610311,-74.113962,"(40.610311, -74.113962)",,,,,,,,,,,,,,,,,,,,,,,,,,,,,,,,,,,,,
283,275161216,2023-09-29,15:40:00,2023-09-29,15:45:00,121,2023-09-29,105,ROBBERY,386,"ROBBERY,PERSONAL ELECTRONIC DEVICE",COMPLETED,FELONY,STATEN ISLAND,(null),STREET,N.Y. POLICE DEPT,(null),(null),941084,168354,40.62866416,-74.15550979,"(40.62866416243126, -74.15550979141629)",,,,,,,,,,,,,,,,,,,,,,,,,,,,,,,,,,,,,
284,276069177,2023-10-03,22:30:00,2023-10-03,22:45:00,120,2023-10-15,105,ROBBERY,384,"ROBBERY,POCKETBOOK/CARRIED BAG",COMPLETED,FELONY,STATEN ISLAND,INSIDE,TRANSIT FACILITY (OTHER),MTA POLICE DEPT,(null),(null),963409,167801,40.627228,-74.07508,"(40.627228, -74.07508)",,,,,,,,,,,,,,,,,,,,,,,,,,,,,,,,,,,,,
285,275355202,2023-10-04,0:05:00,2023-10-04,00:20:00,121,2023-10-04,105,ROBBERY,397,"ROBBERY,OPEN AREA UNCLASSIFIED",COMPLETED,FELONY,STATEN ISLAND,(null),(null),N.Y. POLICE DEPT,(null),(null),943786,166999,40.62495773,-74.14576746,"(40.624957731473316, -74.14576746414191)",,,,,,,,,,,,,,,,,,,,,,,,,,,,,,,,,,,,,
286,275597028H1,2023-10-06,14:26:00,,(null),,2023-10-06,101,MURDER & NON-NEGL. MANSLAUGHTER,,(null),COMPLETED,FELONY,STATEN ISLAND,INSIDE,(null),N.Y. POLICE DEPT,(null),(null),942115,134720,40.53635061,-74.15158584,"(40.536350605875825, -74.15158583675199)",,,,,,,,,,,,,,,,,,,,,,,,,,,,,,,,,,,,,
287,275597027H1,2023-10-06,21:18:00,,(null),120,2023-10-06,101,MURDER & NON-NEGL. MANSLAUGHTER,,(null),COMPLETED,FELONY,STATEN ISLAND,INSIDE,PVT HOUSE,N.Y. POLICE DEPT,(null),(null),961139,165608,40.621203,-74.083249,"(40.621203, -74.083249)",,,,,,,,,,,,,,,,,,,,,,,,,,,,,,,,,,,,,
288,275570320,2023-10-07,12:55:00,2023-10-07,13:00:00,122,2023-10-07,105,ROBBERY,365,"ROBBERY,LIQUOR STORE",COMPLETED,FELONY,STATEN ISLAND,INSIDE,LIQUOR STORE,N.Y. POLICE DEPT,(null),(null),950704,159670,40.604872,-74.120808,"(40.604872, -74.120808)",,,,,,,,,,,,,,,,,,,,,,,,,,,,,,,,,,,,,
289,275656949,2023-10-09,17:50:00,2023-10-09,18:00:00,123,2023-10-09,105,ROBBERY,389,"ROBBERY,DWELLING",COMPLETED,FELONY,STATEN ISLAND,INSIDE,RESIDENCE-HOUSE,N.Y. POLICE DEPT,(null),(null),928361,138080,40.545498,-74.201094,"(40.545498, -74.201094)",,,,,,,,,,,,,,,,,,,,,,,,,,,,,,,,,,,,,
290,275647974,2023-10-09,14:45:00,2023-10-09,15:25:00,120,2023-10-09,105,ROBBERY,397,"ROBBERY,OPEN AREA UNCLASSIFIED",COMPLETED,FELONY,STATEN ISLAND,FRONT OF,STREET,N.Y. POLICE DEPT,(null),(null),962976,171455,40.637257,-74.076649,"(40.637257, -74.076649)",,,,,,,,,,,,,,,,,,,,,,,,,,,,,,,,,,,,,
291,275672821,2023-10-10,3:40:00,2023-10-10,03:50:00,120,2023-10-10,105,ROBBERY,390,"ROBBERY,HOME INVASION",COMPLETED,FELONY,STATEN ISLAND,INSIDE,RESIDENCE - PUBLIC HOUSING,N.Y. HOUSING POLICE,(null),(null),959780,175051,40.647119,-74.088178,"(40.647119, -74.088178)",,,,,,,,,,,,,,,,,,,,,,,,,,,,,,,,,,,,,
292,275934737,2023-10-14,15:20:00,2023-10-14,15:30:00,120,2023-10-14,105,ROBBERY,386,"ROBBERY,PERSONAL ELECTRONIC DEVICE",COMPLETED,FELONY,STATEN ISLAND,INSIDE,GROCERY/BODEGA,N.Y. POLICE DEPT,(null),(null),952218,173158,40.6419,-74.115421,"(40.6419, -74.115421)",,,,,,,,,,,,,,,,,,,,,,,,,,,,,,,,,,,,,
293,275928995,2023-10-14,10:20:00,2023-10-14,10:30:00,120,2023-10-14,105,ROBBERY,380,"ROBBERY,CAR JACKING",COMPLETED,FELONY,STATEN ISLAND,(null),STREET,N.Y. POLICE DEPT,(null),(null),957253,170274,40.63399818,-74.09726711,"(40.6339981849877, -74.09726710983736)",,,,,,,,,,,,,,,,,,,,,,,,,,,,,,,,,,,,,
294,277986371,2023-10-15,17:00:00,2023-11-05,17:45:00,120,2023-11-24,104,RAPE,157,RAPE 1,COMPLETED,FELONY,STATEN ISLAND,INSIDE,RESIDENCE - PUBLIC HOUSING,N.Y. HOUSING POLICE,(null),(null),962873,174172,40.64472094,-74.07703272,"(40.6447209438691, -74.0770327198983)",,,,,,,,,,,,,,,,,,,,,,,,,,,,,,,,,,,,,
295,276011161,2023-10-16,16:58:00,2023-10-16,17:02:00,121,2023-10-16,105,ROBBERY,396,"ROBBERY,BEGIN AS SHOPLIFTING",COMPLETED,FELONY,STATEN ISLAND,INSIDE,COMMERCIAL BUILDING,N.Y. POLICE DEPT,(null),(null),935629,167479,40.626237,-74.175155,"(40.626237, -74.175155)",,,,,,,,,,,,,,,,,,,,,,,,,,,,,,,,,,,,,
296,276119899,2023-10-18,12:00:00,2023-10-18,12:05:00,120,2023-10-18,105,ROBBERY,397,"ROBBERY,OPEN AREA UNCLASSIFIED",ATTEMPTED,FELONY,STATEN ISLAND,FRONT OF,STREET,N.Y. POLICE DEPT,(null),(null),961171,162476,40.612606,-74.083121,"(40.612606, -74.083121)",,,,,,,,,,,,,,,,,,,,,,,,,,,,,,,,,,,,,
297,276145416,2023-10-18,23:47:00,2023-10-18,23:55:00,121,2023-10-19,105,ROBBERY,397,"ROBBERY,OPEN AREA UNCLASSIFIED",ATTEMPTED,FELONY,STATEN ISLAND,(null),STREET,N.Y. POLICE DEPT,(null),(null),945527,169041,40.63057037,-74.13950741,"(40.630570365660994, -74.13950741403016)",,,,,,,,,,,,,,,,,,,,,,,,,,,,,,,,,,,,,
298,276194052,2023-10-18,12:25:00,2023-10-18,12:30:00,120,2023-10-19,105,ROBBERY,386,"ROBBERY,PERSONAL ELECTRONIC DEVICE",COMPLETED,FELONY,STATEN ISLAND,INSIDE,GROCERY/BODEGA,N.Y. POLICE DEPT,(null),(null),961033,164923,40.619322,-74.083627,"(40.619322, -74.083627)",,,,,,,,,,,,,,,,,,,,,,,,,,,,,,,,,,,,,
299,276294668,2023-10-22,0:40:00,2023-10-22,00:46:00,120,2023-10-22,105,ROBBERY,363,"ROBBERY,BAR/RESTAURANT",COMPLETED,FELONY,STATEN ISLAND,FRONT OF,BAR/NIGHT CLUB,N.Y. POLICE DEPT,(null),(null),963548,168559,40.629309,-74.074579,"(40.629309, -74.074579)",,,,,,,,,,,,,,,,,,,,,,,,,,,,,,,,,,,,,
300,276348355,2023-10-23,12:20:00,2023-10-23,12:30:00,120,2023-10-23,105,ROBBERY,397,"ROBBERY,OPEN AREA UNCLASSIFIED",COMPLETED,FELONY,STATEN ISLAND,(null),STREET,N.Y. POLICE DEPT,(null),(null),960873,161764,40.61065032,-74.0841952,"(40.61065031642123, -74.08419520186455)",,,,,,,,,,,,,,,,,,,,,,,,,,,,,,,,,,,,,
301,276623267,2023-10-23,1:30:00,2023-10-23,05:00:00,122,2023-10-28,104,RAPE,155,RAPE 2,COMPLETED,FELONY,STATEN ISLAND,INSIDE,RESIDENCE - APT. HOUSE,N.Y. POLICE DEPT,(null),(null),954827,148519,40.57428569,-74.10591441,"(40.5742856881925, -74.1059144051212)",,,,,,,,,,,,,,,,,,,,,,,,,,,,,,,,,,,,,
302,276420284,2023-10-24,23:20:00,2023-10-24,23:25:00,122,2023-10-25,105,ROBBERY,386,"ROBBERY,PERSONAL ELECTRONIC DEVICE",COMPLETED,FELONY,STATEN ISLAND,(null),STREET,N.Y. POLICE DEPT,(null),(null),966720,156275,40.59559763,-74.06312226,"(40.59559762865698, -74.06312225973264)",,,,,,,,,,,,,,,,,,,,,,,,,,,,,,,,,,,,,
303,276520808,2023-10-26,8:12:00,2023-10-26,08:20:00,121,2023-10-26,105,ROBBERY,386,"ROBBERY,PERSONAL ELECTRONIC DEVICE",COMPLETED,FELONY,STATEN ISLAND,(null),BUS (NYC TRANSIT),N.Y. POLICE DEPT,(null),(null),941378,153741,40.58855596,-74.15435786,"(40.5885559635235, -74.15435786254758)",,,,,,,,,,,,,,,,,,,,,,,,,,,,,,,,,,,,,
304,276608141,2023-10-26,15:15:00,2023-10-26,15:30:00,123,2023-10-26,105,ROBBERY,386,"ROBBERY,PERSONAL ELECTRONIC DEVICE",COMPLETED,FELONY,STATEN ISLAND,FRONT OF,CHAIN STORE,N.Y. POLICE DEPT,(null),(null),930816,133437,40.53277,-74.192222,"(40.53277, -74.192222)",,,,,,,,,,,,,,,,,,,,,,,,,,,,,,,,,,,,,
305,276679520,2023-10-29,3:00:00,2023-10-29,04:00:00,121,2023-10-29,104,RAPE,157,RAPE 1,COMPLETED,FELONY,STATEN ISLAND,FRONT OF,RESIDENCE-HOUSE,N.Y. POLICE DEPT,(null),(null),942822,166353,40.62318838,-74.14923769,"(40.6231883776008, -74.1492376947323)",,,,,,,,,,,,,,,,,,,,,,,,,,,,,,,,,,,,,
306,276805760,2023-11-01,1:15:00,2023-11-01,01:25:00,120,2023-11-01,105,ROBBERY,386,"ROBBERY,PERSONAL ELECTRONIC DEVICE",COMPLETED,FELONY,STATEN ISLAND,FRONT OF,BAR/NIGHT CLUB,N.Y. POLICE DEPT,(null),(null),962202,168543,40.629262,-74.07943,"(40.629262, -74.07943)",,,,,,,,,,,,,,,,,,,,,,,,,,,,,,,,,,,,,
307,276898377,2023-11-02,17:05:00,2023-11-02,17:07:00,121,2023-11-02,105,ROBBERY,384,"ROBBERY,POCKETBOOK/CARRIED BAG",COMPLETED,FELONY,STATEN ISLAND,(null),STREET,N.Y. POLICE DEPT,(null),(null),946993,170595,40.63484205,-74.13423444,"(40.63484204850834, -74.13423444122982)",,,,,,,,,,,,,,,,,,,,,,,,,,,,,,,,,,,,,
308,276973884,2023-11-03,23:51:00,2023-11-04,00:10:00,121,2023-11-04,105,ROBBERY,390,"ROBBERY,HOME INVASION",COMPLETED,FELONY,STATEN ISLAND,FRONT OF,RESIDENCE-HOUSE,N.Y. POLICE DEPT,(null),(null),937434,170748,40.635218,-74.168673,"(40.635218, -74.168673)",,,,,,,,,,,,,,,,,,,,,,,,,,,,,,,,,,,,,
309,277027340,2023-11-05,13:50:00,2023-11-05,13:57:00,120,2023-11-05,105,ROBBERY,386,"ROBBERY,PERSONAL ELECTRONIC DEVICE",COMPLETED,FELONY,STATEN ISLAND,FRONT OF,PARK/PLAYGROUND,N.Y. POLICE DEPT,CLOVE LAKES PARK,(null),955080,164503,40.618152,-74.10507,"(40.618152, -74.10507)",,,,,,,,,,,,,,,,,,,,,,,,,,,,,,,,,,,,,
310,277119155,2023-11-06,10:00:00,2023-11-06,10:05:00,122,2023-11-07,105,ROBBERY,390,"ROBBERY,HOME INVASION",COMPLETED,FELONY,STATEN ISLAND,INSIDE,RESIDENCE-HOUSE,N.Y. POLICE DEPT,(null),(null),941077,142562,40.557871,-74.155367,"(40.557871, -74.155367)",,,,,,,,,,,,,,,,,,,,,,,,,,,,,,,,,,,,,
311,277146502,2023-11-07,17:00:00,,(null),122,2023-11-07,105,ROBBERY,389,"ROBBERY,DWELLING",COMPLETED,FELONY,STATEN ISLAND,INSIDE,RESIDENCE-HOUSE,N.Y. POLICE DEPT,(null),(null),940144,140856,40.553185,-74.158714,"(40.553185, -74.158714)",,,,,,,,,,,,,,,,,,,,,,,,,,,,,,,,,,,,,
312,277170601,2023-11-08,0:20:00,2023-11-08,00:30:00,120,2023-11-08,105,ROBBERY,389,"ROBBERY,DWELLING",COMPLETED,FELONY,STATEN ISLAND,INSIDE,RESIDENCE - APT. HOUSE,N.Y. POLICE DEPT,(null),(null),961171,162476,40.612606,-74.083121,"(40.612606, -74.083121)",,,,,,,,,,,,,,,,,,,,,,,,,,,,,,,,,,,,,
313,277277177,2023-11-09,12:30:00,2023-11-09,12:45:00,120,2023-11-09,105,ROBBERY,396,"ROBBERY,BEGIN AS SHOPLIFTING",COMPLETED,FELONY,STATEN ISLAND,INSIDE,DEPARTMENT STORE,N.Y. POLICE DEPT,(null),(null),960701,162881,40.613717,-74.084818,"(40.613717, -74.084818)",,,,,,,,,,,,,,,,,,,,,,,,,,,,,,,,,,,,,
314,277216869,2023-11-09,0:25:00,2023-11-09,00:35:00,120,2023-11-09,105,ROBBERY,397,"ROBBERY,OPEN AREA UNCLASSIFIED",COMPLETED,FELONY,STATEN ISLAND,FRONT OF,STREET,N.Y. POLICE DEPT,(null),(null),961577,163519,40.61547,-74.081663,"(40.61547, -74.081663)",,,,,,,,,,,,,,,,,,,,,,,,,,,,,,,,,,,,,
315,277333266,2023-11-10,15:30:00,2023-11-10,15:40:00,123,2023-11-10,105,ROBBERY,397,"ROBBERY,OPEN AREA UNCLASSIFIED",COMPLETED,FELONY,STATEN ISLAND,REAR OF,FAST FOOD,N.Y. POLICE DEPT,(null),(null),923905,129390,40.521618,-74.217048,"(40.521618, -74.217048)",,,,,,,,,,,,,,,,,,,,,,,,,,,,,,,,,,,,,
316,277318870,2023-11-10,12:50:00,2023-11-10,13:00:00,120,2023-11-10,105,ROBBERY,399,"ROBBERY,COMMERCIAL UNCLASSIFIED",COMPLETED,FELONY,STATEN ISLAND,INSIDE,COMMERCIAL BUILDING,N.Y. POLICE DEPT,(null),(null),962133,171658,40.637813,-74.079688,"(40.637813, -74.079688)",,,,,,,,,,,,,,,,,,,,,,,,,,,,,,,,,,,,,
317,277459254,2023-11-13,20:16:00,2023-11-13,21:20:00,120,2023-11-13,105,ROBBERY,383,"ROBBERY,DELIVERY PERSON",COMPLETED,FELONY,STATEN ISLAND,FRONT OF,RESIDENCE - APT. HOUSE,N.Y. POLICE DEPT,(null),(null),957487,169813,40.632736,-74.096419,"(40.632736, -74.096419)",,,,,,,,,,,,,,,,,,,,,,,,,,,,,,,,,,,,,
318,277458772,2023-11-13,18:10:00,2023-11-13,18:15:00,120,2023-11-13,105,ROBBERY,386,"ROBBERY,PERSONAL ELECTRONIC DEVICE",COMPLETED,FELONY,STATEN ISLAND,(null),BUS (OTHER),N.Y. POLICE DEPT,(null),(null),960450,170255,40.6339552,-74.08574862,"(40.633955200882994, -74.08574862455268)",,,,,,,,,,,,,,,,,,,,,,,,,,,,,,,,,,,,,
319,277554511,2023-11-15,10:50:00,2023-11-15,11:10:00,120,2023-11-15,105,ROBBERY,396,"ROBBERY,BEGIN AS SHOPLIFTING",COMPLETED,FELONY,STATEN ISLAND,INSIDE,CHAIN STORE,N.Y. POLICE DEPT,(null),(null),959973,172022,40.638805,-74.08747,"(40.638805, -74.08747)",,,,,,,,,,,,,,,,,,,,,,,,,,,,,,,,,,,,,
320,277629153,2023-11-16,13:23:00,2023-11-16,13:49:00,120,2023-11-16,105,ROBBERY,397,"ROBBERY,OPEN AREA UNCLASSIFIED",COMPLETED,FELONY,STATEN ISLAND,FRONT OF,STREET,N.Y. POLICE DEPT,(null),(null),962498,172473,40.640051,-74.078374,"(40.640051, -74.078374)",,,,,,,,,,,,,,,,,,,,,,,,,,,,,,,,,,,,,
321,277700939,2023-11-17,18:00:00,2023-11-17,18:25:00,120,2023-11-17,105,ROBBERY,383,"ROBBERY,DELIVERY PERSON",COMPLETED,FELONY,STATEN ISLAND,FRONT OF,RESIDENCE - APT. HOUSE,N.Y. POLICE DEPT,(null),(null),957487,169813,40.632736,-74.096419,"(40.632736, -74.096419)",,,,,,,,,,,,,,,,,,,,,,,,,,,,,,,,,,,,,
322,277729040,2023-11-18,11:00:00,2023-11-18,11:15:00,120,2023-11-18,105,ROBBERY,389,"ROBBERY,DWELLING",COMPLETED,FELONY,STATEN ISLAND,INSIDE,RESIDENCE-HOUSE,N.Y. POLICE DEPT,(null),(null),961102,172357,40.639728,-74.083405,"(40.639728, -74.083405)",,,,,,,,,,,,,,,,,,,,,,,,,,,,,,,,,,,,,
323,277748697,2023-11-18,20:07:00,2023-11-18,20:15:00,122,2023-11-19,105,ROBBERY,394,"ROBBERY,LICENSED FOR HIRE VEHICLE",COMPLETED,FELONY,STATEN ISLAND,FRONT OF,STREET,N.Y. POLICE DEPT,(null),(null),964694,157247,40.598261,-74.070417,"(40.598261, -74.070417)",,,,,,,,,,,,,,,,,,,,,,,,,,,,,,,,,,,,,
324,278137147,2023-11-20,22:00:00,2023-11-20,23:00:00,120,2023-11-28,104,RAPE,157,RAPE 1,COMPLETED,FELONY,STATEN ISLAND,INSIDE,RESIDENCE-HOUSE,N.Y. POLICE DEPT,(null),(null),962873,174172,40.64472094,-74.07703272,"(40.6447209438691, -74.0770327198983)",,,,,,,,,,,,,,,,,,,,,,,,,,,,,,,,,,,,,
325,277839072,2023-11-20,18:53:00,2023-11-20,19:17:00,120,2023-11-20,105,ROBBERY,383,"ROBBERY,DELIVERY PERSON",COMPLETED,FELONY,STATEN ISLAND,FRONT OF,STREET,N.Y. POLICE DEPT,(null),(null),959304,169606,40.632172,-74.089875,"(40.632172, -74.089875)",,,,,,,,,,,,,,,,,,,,,,,,,,,,,,,,,,,,,
326,277827983,2023-11-20,23:07:00,2023-11-20,23:10:00,120,2023-11-20,105,ROBBERY,386,"ROBBERY,PERSONAL ELECTRONIC DEVICE",COMPLETED,FELONY,STATEN ISLAND,(null),STREET,N.Y. POLICE DEPT,(null),(null),962873,174172,40.64472094,-74.07703272,"(40.6447209438691, -74.0770327198983)",,,,,,,,,,,,,,,,,,,,,,,,,,,,,,,,,,,,,
327,277933314,2023-11-22,19:00:00,2023-11-22,19:30:00,120,2023-11-22,105,ROBBERY,383,"ROBBERY,DELIVERY PERSON",COMPLETED,FELONY,STATEN ISLAND,FRONT OF,STREET,N.Y. POLICE DEPT,(null),(null),959565,174181,40.644731,-74.088948,"(40.644731, -74.088948)",,,,,,,,,,,,,,,,,,,,,,,,,,,,,,,,,,,,,
328,277941135,2023-11-22,19:45:00,2023-11-22,20:00:00,120,2023-11-22,105,ROBBERY,384,"ROBBERY,POCKETBOOK/CARRIED BAG",COMPLETED,FELONY,STATEN ISLAND,FRONT OF,RESIDENCE - APT. HOUSE,N.Y. POLICE DEPT,(null),(null),962575,173885,40.643925,-74.078103,"(40.643925, -74.078103)",,,,,,,,,,,,,,,,,,,,,,,,,,,,,,,,,,,,,
329,277938632,2023-11-22,19:30:00,2023-11-22,19:40:00,120,2023-11-22,105,ROBBERY,383,"ROBBERY,DELIVERY PERSON",COMPLETED,FELONY,STATEN ISLAND,FRONT OF,RESIDENCE - APT. HOUSE,N.Y. POLICE DEPT,(null),(null),961613,173734,40.64351,-74.081569,"(40.64351, -74.081569)",,,,,,,,,,,,,,,,,,,,,,,,,,,,,,,,,,,,,
330,277975480,2023-11-23,20:23:00,2023-11-23,20:33:00,120,2023-11-23,105,ROBBERY,383,"ROBBERY,DELIVERY PERSON",COMPLETED,FELONY,STATEN ISLAND,FRONT OF,STREET,N.Y. POLICE DEPT,(null),(null),959642,172515,40.640157,-74.088667,"(40.640157, -74.088667)",,,,,,,,,,,,,,,,,,,,,,,,,,,,,,,,,,,,,
331,277970165,2023-11-23,0:48:00,2023-11-23,01:00:00,120,2023-11-23,105,ROBBERY,397,"ROBBERY,OPEN AREA UNCLASSIFIED",COMPLETED,FELONY,STATEN ISLAND,FRONT OF,GROCERY/BODEGA,N.Y. POLICE DEPT,(null),(null),960256,169942,40.633098,-74.086445,"(40.633098, -74.086445)",,,,,,,,,,,,,,,,,,,,,,,,,,,,,,,,,,,,,
332,277974842,2023-11-23,16:50:00,2023-11-23,17:00:00,120,2023-11-23,105,ROBBERY,394,"ROBBERY,LICENSED FOR HIRE VEHICLE",COMPLETED,FELONY,STATEN ISLAND,(null),STREET,N.Y. POLICE DEPT,(null),(null),961510,173924,40.6440286,-74.08194194,"(40.64402860189773, -74.08194193600019)",,,,,,,,,,,,,,,,,,,,,,,,,,,,,,,,,,,,,
333,278042705,2023-11-24,18:15:00,2023-11-24,18:30:00,120,2023-11-24,105,ROBBERY,386,"ROBBERY,PERSONAL ELECTRONIC DEVICE",COMPLETED,FELONY,STATEN ISLAND,FRONT OF,BUS STOP,N.Y. POLICE DEPT,(null),(null),960810,165311,40.620388,-74.084434,"(40.620388, -74.084434)",,,,,,,,,,,,,,,,,,,,,,,,,,,,,,,,,,,,,
334,278310310,2023-11-25,23:00:00,2023-11-25,23:59:00,120,2023-11-30,104,RAPE,157,RAPE 1,COMPLETED,FELONY,STATEN ISLAND,INSIDE,RESIDENCE - APT. HOUSE,N.Y. POLICE DEPT,(null),(null),962873,174172,40.64472094,-74.07703272,"(40.6447209438691, -74.0770327198983)",,,,,,,,,,,,,,,,,,,,,,,,,,,,,,,,,,,,,
335,278237499,2023-11-25,18:00:00,2023-11-26,01:00:00,121,2023-11-29,104,RAPE,157,RAPE 1,COMPLETED,FELONY,STATEN ISLAND,INSIDE,RESIDENCE - PUBLIC HOUSING,N.Y. HOUSING POLICE,(null),(null),942822,166353,40.62318838,-74.14923769,"(40.6231883776008, -74.1492376947323)",,,,,,,,,,,,,,,,,,,,,,,,,,,,,,,,,,,,,
336,278100333,2023-11-26,3:00:00,2023-11-26,06:00:00,121,2023-11-27,104,RAPE,157,RAPE 1,COMPLETED,FELONY,STATEN ISLAND,FRONT OF,STREET,N.Y. POLICE DEPT,(null),(null),942822,166353,40.62318838,-74.14923769,"(40.6231883776008, -74.1492376947323)",,,,,,,,,,,,,,,,,,,,,,,,,,,,,,,,,,,,,
337,278078129,2023-11-26,18:30:00,2023-11-26,20:10:00,121,2023-11-26,105,ROBBERY,377,"ROBBERY,BODEGA/CONVENIENCE STORE",COMPLETED,FELONY,STATEN ISLAND,INSIDE,GROCERY/BODEGA,N.Y. POLICE DEPT,(null),(null),946272,169948,40.633064,-74.136827,"(40.633064, -74.136827)",,,,,,,,,,,,,,,,,,,,,,,,,,,,,,,,,,,,,
338,278046094,2023-11-26,1:40:00,2023-11-26,01:46:00,120,2023-11-26,105,ROBBERY,367,"ROBBERY, CHAIN STORE",ATTEMPTED,FELONY,STATEN ISLAND,INSIDE,CHAIN STORE,N.Y. POLICE DEPT,(null),(null),955366,163788,40.616191,-74.104035,"(40.616191, -74.104035)",,,,,,,,,,,,,,,,,,,,,,,,,,,,,,,,,,,,,
339,278100345,2023-11-27,13:10:00,2023-11-27,13:13:00,122,2023-11-27,105,ROBBERY,395,"ROBBERY,ON BUS/ OR BUS DRIVER",COMPLETED,FELONY,STATEN ISLAND,(null),BUS (NYC TRANSIT),N.Y. POLICE DEPT,(null),(null),950762,158555,40.60180983,-74.12059529,"(40.60180983196836, -74.12059528794194)",,,,,,,,,,,,,,,,,,,,,,,,,,,,,,,,,,,,,
340,278251702,2023-11-28,14:00:00,,(null),123,2023-11-29,105,ROBBERY,386,"ROBBERY,PERSONAL ELECTRONIC DEVICE",COMPLETED,FELONY,STATEN ISLAND,FRONT OF,OTHER,N.Y. POLICE DEPT,(null),(null),926336,137054,40.542668,-74.208373,"(40.542668, -74.208373)",,,,,,,,,,,,,,,,,,,,,,,,,,,,,,,,,,,,,
341,278237496,2023-11-28,1:00:00,2023-11-28,09:25:00,120,2023-11-29,104,RAPE,157,RAPE 1,COMPLETED,FELONY,STATEN ISLAND,INSIDE,RESIDENCE-HOUSE,N.Y. POLICE DEPT,(null),(null),962873,174172,40.64472094,-74.07703272,"(40.6447209438691, -74.0770327198983)",,,,,,,,,,,,,,,,,,,,,,,,,,,,,,,,,,,,,
342,278254193,2023-11-29,19:34:00,2023-11-29,19:37:00,120,2023-11-29,105,ROBBERY,371,"ROBBERY,CHECK CASHING BUSINESS",ATTEMPTED,FELONY,STATEN ISLAND,INSIDE,CHECK CASHING BUSINESS,N.Y. POLICE DEPT,(null),(null),961612,166618,40.623977,-74.081548,"(40.623977, -74.081548)",,,,,,,,,,,,,,,,,,,,,,,,,,,,,,,,,,,,,
343,278233448,2023-11-29,14:25:00,2023-11-29,14:33:00,121,2023-11-29,105,ROBBERY,397,"ROBBERY,OPEN AREA UNCLASSIFIED",COMPLETED,FELONY,STATEN ISLAND,REAR OF,OPEN AREAS (OPEN LOTS),N.Y. POLICE DEPT,(null),(null),943691,170165,40.633648,-74.146127,"(40.633648, -74.146127)",,,,,,,,,,,,,,,,,,,,,,,,,,,,,,,,,,,,,
344,278439580,2023-12-03,22:30:00,2023-12-03,22:43:00,120,2023-12-04,105,ROBBERY,397,"ROBBERY,OPEN AREA UNCLASSIFIED",COMPLETED,FELONY,STATEN ISLAND,FRONT OF,STREET,N.Y. POLICE DEPT,(null),(null),963019,173910,40.643996,-74.076502,"(40.643996, -74.076502)",,,,,,,,,,,,,,,,,,,,,,,,,,,,,,,,,,,,,
345,278470765,2023-12-04,14:25:00,2023-12-04,14:50:00,120,2023-12-04,105,ROBBERY,386,"ROBBERY,PERSONAL ELECTRONIC DEVICE",COMPLETED,FELONY,STATEN ISLAND,(null),STREET,N.Y. POLICE DEPT,(null),(null),961971,174202,40.64479282,-74.08028168,"(40.64479282335658, -74.08028167506356)",,,,,,,,,,,,,,,,,,,,,,,,,,,,,,,,,,,,,
346,278630731,2023-12-06,0:30:00,2023-12-06,00:40:00,120,2023-12-06,105,ROBBERY,389,"ROBBERY,DWELLING",COMPLETED,FELONY,STATEN ISLAND,INSIDE,RESIDENCE - APT. HOUSE,N.Y. POLICE DEPT,(null),(null),963729,168399,40.62887,-74.073928,"(40.62887, -74.073928)",,,,,,,,,,,,,,,,,,,,,,,,,,,,,,,,,,,,,
347,278717310,2023-12-07,17:25:00,,(null),121,2023-12-08,105,ROBBERY,384,"ROBBERY,POCKETBOOK/CARRIED BAG",COMPLETED,FELONY,STATEN ISLAND,(null),STREET,N.Y. POLICE DEPT,(null),(null),946145,171314,40.63681194,-74.13729378,"(40.636811940702216, -74.13729378288073)",,,,,,,,,,,,,,,,,,,,,,,,,,,,,,,,,,,,,
348,278659498,2023-12-07,15:00:00,2023-12-07,15:15:00,120,2023-12-07,105,ROBBERY,386,"ROBBERY,PERSONAL ELECTRONIC DEVICE",COMPLETED,FELONY,STATEN ISLAND,(null),STREET,N.Y. POLICE DEPT,(null),(null),965441,163810,40.61627704,-74.06774868,"(40.61627703643139, -74.06774868264796)",,,,,,,,,,,,,,,,,,,,,,,,,,,,,,,,,,,,,
349,278684430,2023-12-08,1:15:00,2023-12-08,01:20:00,120,2023-12-08,105,ROBBERY,382,"ROBBERY,NECKCHAIN/JEWELRY",COMPLETED,FELONY,STATEN ISLAND,FRONT OF,PARKING LOT/GARAGE (PUBLIC),N.Y. POLICE DEPT,(null),(null),950645,162702,40.613195,-74.121034,"(40.613195, -74.121034)",,,,,,,,,,,,,,,,,,,,,,,,,,,,,,,,,,,,,
350,278708754,2023-12-08,14:30:00,2023-12-08,14:45:00,121,2023-12-08,105,ROBBERY,386,"ROBBERY,PERSONAL ELECTRONIC DEVICE",COMPLETED,FELONY,STATEN ISLAND,FRONT OF,STREET,N.Y. POLICE DEPT,(null),(null),941189,169903,40.632918,-74.155141,"(40.632918, -74.155141)",,,,,,,,,,,,,,,,,,,,,,,,,,,,,,,,,,,,,
351,278793166,2023-12-10,14:10:00,2023-12-10,14:20:00,123,2023-12-10,104,RAPE,159,"RAPE 1,ATTEMPT",ATTEMPTED,FELONY,STATEN ISLAND,INSIDE,RESIDENCE-HOUSE,N.Y. POLICE DEPT,(null),(null),914803,125922,40.51203825,-74.24975495,"(40.5120382535219, -74.2497549524458)",,,,,,,,,,,,,,,,,,,,,,,,,,,,,,,,,,,,,
352,278833163,2023-12-11,14:37:00,2023-12-11,15:23:00,120,2023-12-11,105,ROBBERY,396,"ROBBERY,BEGIN AS SHOPLIFTING",COMPLETED,FELONY,STATEN ISLAND,INSIDE,CHAIN STORE,N.Y. POLICE DEPT,(null),(null),963180,173627,40.64322,-74.075921,"(40.64322, -74.075921)",,,,,,,,,,,,,,,,,,,,,,,,,,,,,,,,,,,,,
353,278952639,2023-12-13,16:45:00,2023-12-13,16:55:00,121,2023-12-13,105,ROBBERY,396,"ROBBERY,BEGIN AS SHOPLIFTING",COMPLETED,FELONY,STATEN ISLAND,FRONT OF,GROCERY/BODEGA,N.Y. POLICE DEPT,(null),(null),942827,166373,40.623238,-74.149217,"(40.623238, -74.149217)",,,,,,,,,,,,,,,,,,,,,,,,,,,,,,,,,,,,,
354,279006991,2023-12-14,15:11:00,2023-12-14,15:15:00,120,2023-12-14,105,ROBBERY,397,"ROBBERY,OPEN AREA UNCLASSIFIED",COMPLETED,FELONY,STATEN ISLAND,FRONT OF,STREET,N.Y. POLICE DEPT,(null),(null),963019,173910,40.643996,-74.076502,"(40.643996, -74.076502)",,,,,,,,,,,,,,,,,,,,,,,,,,,,,,,,,,,,,
355,279031842,2023-12-14,23:25:00,2023-12-14,23:35:00,120,2023-12-14,105,ROBBERY,386,"ROBBERY,PERSONAL ELECTRONIC DEVICE",COMPLETED,FELONY,STATEN ISLAND,INSIDE,RESIDENCE-HOUSE,N.Y. POLICE DEPT,(null),(null),960510,174383,40.645288,-74.085547,"(40.645288, -74.085547)",,,,,,,,,,,,,,,,,,,,,,,,,,,,,,,,,,,,,
356,279048584,2023-12-15,11:10:00,2023-12-15,11:14:00,122,2023-12-15,105,ROBBERY,386,"ROBBERY,PERSONAL ELECTRONIC DEVICE",COMPLETED,FELONY,STATEN ISLAND,(null),(null),N.Y. POLICE DEPT,(null),(null),953917,147341,40.57104102,-74.10918334,"(40.57104101886204, -74.10918333957176)",,,,,,,,,,,,,,,,,,,,,,,,,,,,,,,,,,,,,
357,279095164,2023-12-16,19:00:00,,(null),123,2023-12-16,105,ROBBERY,396,"ROBBERY,BEGIN AS SHOPLIFTING",COMPLETED,FELONY,STATEN ISLAND,INSIDE,CHAIN STORE,N.Y. POLICE DEPT,(null),(null),926336,137054,40.542668,-74.208373,"(40.542668, -74.208373)",,,,,,,,,,,,,,,,,,,,,,,,,,,,,,,,,,,,,
358,279081208,2023-12-16,10:30:00,2023-12-16,10:31:00,122,2023-12-16,105,ROBBERY,384,"ROBBERY,POCKETBOOK/CARRIED BAG",COMPLETED,FELONY,STATEN ISLAND,REAR OF,BANK,N.Y. POLICE DEPT,(null),(null),960166,155636,40.59383,-74.086718,"(40.59383, -74.086718)",,,,,,,,,,,,,,,,,,,,,,,,,,,,,,,,,,,,,
359,279133398,2023-12-18,0:43:00,2023-12-18,00:47:00,121,2023-12-18,105,ROBBERY,390,"ROBBERY,HOME INVASION",COMPLETED,FELONY,STATEN ISLAND,FRONT OF,RESIDENCE-HOUSE,N.Y. POLICE DEPT,(null),(null),948498,159142,40.603415,-74.128749,"(40.603415, -74.128749)",,,,,,,,,,,,,,,,,,,,,,,,,,,,,,,,,,,,,
360,279208483,2023-12-19,10:03:00,2023-12-19,10:08:00,120,2023-12-19,105,ROBBERY,386,"ROBBERY,PERSONAL ELECTRONIC DEVICE",COMPLETED,FELONY,STATEN ISLAND,FRONT OF,PUBLIC SCHOOL,N.Y. POLICE DEPT,(null),(null),961681,174175,40.644719,-74.081327,"(40.644719, -74.081327)",,,,,,,,,,,,,,,,,,,,,,,,,,,,,,,,,,,,,
361,279411279,2023-12-22,21:55:00,2023-12-22,22:00:00,121,2023-12-22,105,ROBBERY,386,"ROBBERY,PERSONAL ELECTRONIC DEVICE",COMPLETED,FELONY,STATEN ISLAND,REAR OF,STREET,N.Y. POLICE DEPT,(null),(null),947579,170920,40.635738,-74.132124,"(40.635738, -74.132124)",,,,,,,,,,,,,,,,,,,,,,,,,,,,,,,,,,,,,
362,279418361,2023-12-23,1:20:00,2023-12-23,01:29:00,122,2023-12-23,105,ROBBERY,390,"ROBBERY,HOME INVASION",COMPLETED,FELONY,STATEN ISLAND,INSIDE,RESIDENCE - APT. HOUSE,N.Y. POLICE DEPT,(null),(null),951626,149461,40.576854,-74.117437,"(40.576854, -74.117437)",,,,,,,,,,,,,,,,,,,,,,,,,,,,,,,,,,,,,
363,279447847,2023-12-24,0:20:00,2023-12-24,00:26:00,121,2023-12-24,105,ROBBERY,394,"ROBBERY,LICENSED FOR HIRE VEHICLE",COMPLETED,FELONY,STATEN ISLAND,FRONT OF,STREET,N.Y. POLICE DEPT,(null),(null),942038,169837,40.63274,-74.152082,"(40.63274, -74.152082)",,,,,,,,,,,,,,,,,,,,,,,,,,,,,,,,,,,,,
364,279472819,2023-12-24,22:25:00,2023-12-24,22:35:00,120,2023-12-25,105,ROBBERY,387,"ROBBERY,CLOTHING",COMPLETED,FELONY,STATEN ISLAND,FRONT OF,GROCERY/BODEGA,N.Y. POLICE DEPT,(null),(null),960729,163208,40.614616,-74.084716,"(40.614616, -74.084716)",,,,,,,,,,,,,,,,,,,,,,,,,,,,,,,,,,,,,
365,279485389,2023-12-25,18:00:00,2023-12-25,18:10:00,120,2023-12-25,105,ROBBERY,396,"ROBBERY,BEGIN AS SHOPLIFTING",COMPLETED,FELONY,STATEN ISLAND,INSIDE,GROCERY/BODEGA,N.Y. POLICE DEPT,(null),(null),950382,162676,40.613121,-74.121981,"(40.613121, -74.121981)",,,,,,,,,,,,,,,,,,,,,,,,,,,,,,,,,,,,,
366,279687754,2023-12-29,16:00:00,2023-12-29,16:10:00,121,2023-12-29,105,ROBBERY,396,"ROBBERY,BEGIN AS SHOPLIFTING",COMPLETED,FELONY,STATEN ISLAND,FRONT OF,GROCERY/BODEGA,N.Y. POLICE DEPT,(null),(null),947239,171747,40.638005,-74.133351,"(40.638005, -74.133351)",,,,,,,,,,,,,,,,,,,,,,,,,,,,,,,,,,,,,
367,,,,,,,,,,,,,,,,,,,,,,40.61453272,-74.07418481,,0101000020E6100000708C7C6BBF8452C02BC709BDA84E4440,0101000020110F0000E18EB617A3745FC100C68D5380E75241,DE MATTI PARK,,,,STATEN ISLAND,10305,NEIGHBORHOOD PARK,PARKS,PARKS AND PLAZAS,"PARKS, GARDENS, AND HISTORICAL SITES",Local,NYC Department of Parks and Recreation,NYCDPR,Public,NYC Department of Parks and Recreation,NYCDPR,City,0,,STATEN ISLAND,0,5029670116,963653.6076,163175.9486,501,SI37,SI0103,49,3600,3600,5,31,120,dpr_parksproperties,f4ecceb6a440faa97d3b89536b3d515d
368,,,,,,,,,,,,,,,,,,,,,,40.51039165,-74.23040501,,0101000020E61000000B7D54EEBE8E52C044CE993E54414440,0101000020110F0000FEB807AE9E855FC143B1015899D85241,AESOP PARK,555,PAGE AVENUE,555 PAGE AVENUE,STATEN ISLAND,10307,JOINTLY OPERATED PLAYGROUND,RECREATION AND WATERFRONT SITES,PARKS AND PLAZAS,"PARKS, GARDENS, AND HISTORICAL SITES",Local,NYC Department of Parks and Recreation,NYCDPR,Public,NYC Department of Parks and Recreation,NYCDPR,City,0,,STATEN ISLAND,5131697,5077600001,920181.4843,125310.3512,503,SI11,SI0305,51,24401,24401,5,31,123,dpr_parksproperties,06b0a881efecdeba22774a821498f49e
369,,,,,,,,,,,,,,,,,,,,,,40.59580191,-74.06302664,,0101000020E6100000A52DC39A088452C02C5998F7424C4440,0101000020110F00000347F98F6C735FC12EDCB8B9D1E45241,SOUTH BEACH LIBRARY,41,FATHER CAPODANNO BOULEVARD,41 FATHER CAPODANNO BOULEVARD,STATEN ISLAND,10305,PUBLIC LIBRARY,PUBLIC LIBRARIES,LIBRARIES,LIBRARIES AND CULTURAL PROGRAMS,Local,New York Public Library,NYPL,Public,New York Public Library,NYPL,City,0,,STATEN ISLAND,5129317,5031210001,966746.6088,156349.4046,502,SI14,SI0201,50,7400,7400,5,31,122,nypl_libraries,0a8d780f2dd68e7e1d5554a49aa5007c
370,,,,,,,,,,,,,,,,,,,,,,40.59039493,-74.10113836,,0101000020E610000023D4D706798652C0347E91CA914B4440,0101000020110F0000F084D13491775FC157F7D28F0BE45241,DONGAN HILLS LIBRARY,1617,RICHMOND ROAD,1617 RICHMOND ROAD,STATEN ISLAND,10304,PUBLIC LIBRARY,PUBLIC LIBRARIES,LIBRARIES,LIBRARIES AND CULTURAL PROGRAMS,Local,New York Public Library,NYPL,Public,New York Public Library,NYPL,City,0,,STATEN ISLAND,5022895,5008830008,956160.1738,154389.4233,502,SI24,SI0203,50,18100,18100,5,31,122,nypl_libraries,0ea7588a0c8a6e5409f652c5a32e9feb
371,,,,,,,,,,,,,,,,,,,,,,40.63874795,-74.0838988,,0101000020E61000000027E7925E8552C0AB240739C2514440,0101000020110F00000A80816EB1755FC140001540F8EA5241,LIOTTI IKEFUGI PLAYGROUND,,,,STATEN ISLAND,10301,NEIGHBORHOOD PARK,PARKS,PARKS AND PLAZAS,"PARKS, GARDENS, AND HISTORICAL SITES",Local,NYC Department of Parks and Recreation,NYCDPR,Public,NYC Department of Parks and Recreation,NYCDPR,City,0,,STATEN ISLAND,0,5000370006,960965.1017,172000.6293,501,SI22,SI0101,49,1100,1100,5,31,120,dpr_parksproperties,1622d6de49639f5173c5c8b352a456c0
372,,,,,,,,,,,,,,,,,,,,,,40.6365637,-74.16047118,,0101000020E6100000B292A422458A52C0E6C547A67A514440,0101000020110F0000AA133B6E047E5FC1EC133325A8EA5241,BOBBIE LEWIS JR. PLAYGROUND,,,,STATEN ISLAND,10303,NEIGHBORHOOD PARK,PARKS,PARKS AND PLAZAS,"PARKS, GARDENS, AND HISTORICAL SITES",Local,NYC Department of Parks and Recreation,NYCDPR,Public,NYC Department of Parks and Recreation,NYCDPR,City,0,,STATEN ISLAND,0,5012360061,939712.1047,171234.4937,501,SI12,SI0107,49,31902,31902,5,31,121,dpr_parksproperties,1651ab5b94106c215ed6724add696326
373,,,,,,,,,,,,,,,,,,,,,,40.57626674,-74.20338144,,0101000020E6100000D04E4A2D048D52C05D14D7D6C2494440,0101000020110F0000140A139EAE825FC1816C66D805E25241,ISLE OF MEADOWS,,,,STATEN ISLAND,10314,NATURE AREA,PRESERVES AND CONSERVATION AREAS,PARKS AND PLAZAS,"PARKS, GARDENS, AND HISTORICAL SITES",Regional,NYC Department of Parks and Recreation,NYCDPR,Public,NYC Department of Parks and Recreation,NYCDPR,City,0,,STATEN ISLAND,0,5027250001,927751.6118,149291.5455,503,SI05,SI0391,51,22800,22801,5,31,123,dpr_parksproperties,16d40282a5891608f5214bf9339cf7c9
374,,,,,,,,,,,,,,,,,,,,,,40.60869014,-74.11957807,,0101000020E6100000C3949224A78752C0D632F649E94D4440,0101000020110F0000245E876192795FC1ABA19223AAE65241,CHRISTOPHER J. IGNERI PLAYGROUND,,,,STATEN ISLAND,10314,NEIGHBORHOOD PARK,PARKS,PARKS AND PLAZAS,"PARKS, GARDENS, AND HISTORICAL SITES",Local,NYC Department of Parks and Recreation,NYCDPR,Public,NYC Department of Parks and Recreation,NYCDPR,City,0,,STATEN ISLAND,0,5007060050,951047.8924,161061.286,502,SI05,SI0203,49,17300,17300,5,31,122,dpr_parksproperties,16f84f16237d4e84393792e50dbafa44
375,,,,,,,,,,,,,,,,,,,,,,40.63929738,-74.12093436,,0101000020E610000002C23C5DBD8752C0B8ADF739D4514440,0101000020110F0000B95D4C20B8795FC1C25F87660CEB5241,RICHMOND TERRACE CEMETERY,,,,STATEN ISLAND,10310,CEMETERY,CEMETERIES,PARKS AND PLAZAS,"PARKS, GARDENS, AND HISTORICAL SITES",Local,NYC Department of Parks and Recreation,NYCDPR,Public,NYC Department of Parks and Recreation,NYCDPR,City,0,,STATEN ISLAND,0,5001870200,950686.7003,172212.8177,501,SI22,SI0106,49,13302,13302,5,31,120,dpr_parksproperties,16fddccad0a67a1c6b05101656a0a99d
376,,,,,,,,,,,,,,,,,,,,,,40.52690108,-74.16361518,,0101000020E610000022C794A5788A52C0FB12B83971434440,0101000020110F00005B8C92ED5B7E5FC1857B42BCF5DA5241,GARDEN,,,,STATEN ISLAND,10312,GARDEN,GARDENS,PARKS AND PLAZAS,"PARKS, GARDENS, AND HISTORICAL SITES",Local,NYC Department of Parks and Recreation,NYCDPR,Public,NYC Department of Parks and Recreation,NYCDPR,City,0,,STATEN ISLAND,0,5063510003,938764.8801,131283.3385,503,SI01,SI0304,51,17600,17600,5,31,123,dpr_parksproperties,1e606056aeeda9158a532be9edc396b2
377,,,,,,,,,,,,,,,,,,,,,,40.53839631,-74.18713697,,0101000020E6100000C7A10F07FA8B52C0AF10ABE6E9444440,0101000020110F0000A2D53A89EA805FC15EED90A69ADC5241,IDA COURT,,,,STATEN ISLAND,10312,PLAYGROUND,RECREATION AND WATERFRONT SITES,PARKS AND PLAZAS,"PARKS, GARDENS, AND HISTORICAL SITES",Local,NYC Department of Parks and Recreation,NYCDPR,Public,NYC Department of Parks and Recreation,NYCDPR,City,0,,STATEN ISLAND,0,5062950028,932234.766,135484.4019,503,SI01,SI0304,51,17005,17005,5,31,123,dpr_parksproperties,1e9501a45de36913e841ae1c4aced25b
378,,,,,,,,,,,,,,,,,,,,,,40.60641151,-74.14186022,,0101000020E6100000FC9AA336148952C0F7626B9F9E4D4440,0101000020110F00009593757DFE7B5FC19B98269C56E65241,WESTWOOD PARK,,,,STATEN ISLAND,10314,NATURE AREA,PRESERVES AND CONSERVATION AREAS,PARKS AND PLAZAS,"PARKS, GARDENS, AND HISTORICAL SITES",Regional,NYC Department of Parks and Recreation,NYCDPR,Public,NYC Department of Parks and Recreation,NYCDPR,City,0,,STATEN ISLAND,0,5007860050,944859.6805,160240.3546,502,SI05,SI0203,50,18902,18902,5,31,121,dpr_parksproperties,215f8c7de451f0ee31fabc9daed609f6
379,,,,,,,,,,,,,,,,,,,,,,40.64356867,-74.07984294,,0101000020E61000002CCA671F1C8552C0A4F22F3060524440,0101000020110F000092F7C38E40755FC12BA31A0EA9EB5241,LT. LIA PLAYGROUND,49,BELMONT PLACE,49 BELMONT PLACE,STATEN ISLAND,10301,PLAYGROUND,RECREATION AND WATERFRONT SITES,PARKS AND PLAZAS,"PARKS, GARDENS, AND HISTORICAL SITES",Local,NYC Department of Parks and Recreation,NYCDPR,Public,NYC Department of Parks and Recreation,NYCDPR,City,0,,STATEN ISLAND,0,5000210001,962092.347,173755.8972,501,SI22,SI0101,49,900,900,5,31,120,dpr_parksproperties,249a576e118d471fe3be1b6c47878b76
380,,,,,,,,,,,,,,,,,,,,,,40.6410907,-74.08171819,,0101000020E6100000C469C9D83A8552C09DE570FD0E524440,0101000020110F0000653DE8BE74755FC1846BE02B4EEB5241,FORT HILL PARK,,,,STATEN ISLAND,10301,NATURE AREA,PRESERVES AND CONSERVATION AREAS,PARKS AND PLAZAS,"PARKS, GARDENS, AND HISTORICAL SITES",Regional,NYC Department of Parks and Recreation,NYCDPR,Public,NYC Department of Parks and Recreation,NYCDPR,City,0,,STATEN ISLAND,0,5000280164,961571.0933,172853.5839,501,SI22,SI0101,49,900,900,5,31,120,dpr_parksproperties,2678bb6072553b1ef7086d01195ab53d
381,,,,,,,,,,,,,,,,,,,,,,40.53405756,-74.19323522,,0101000020E6100000D4CBF5F05D8C52C00427A3BA5B444440,0101000020110F0000AF82DD3F94815FC125CDBBC5FBDB5241,HUGUENOT PARK LIBRARY,830,HUGUENOT AVENUE,830 HUGUENOT AVENUE,STATEN ISLAND,10312,PUBLIC LIBRARY,PUBLIC LIBRARIES,LIBRARIES,LIBRARIES AND CULTURAL PROGRAMS,Local,New York Public Library,NYPL,Public,New York Public Library,NYPL,City,0,,STATEN ISLAND,5083401,5068170001,930536.257,133907.3784,503,SI32,SI0304,51,20804,20804,5,31,123,nypl_libraries,2852d417f29c1e5b0acf53a0cdf2aa8d
382,,,,,,,,,,,,,,,,,,,,,,40.63095171,-74.09126516,,0101000020E6100000027FA343D78552C041776FC1C2504440,0101000020110F00005377B86F7E765FC11E30B557DAE95241,FOREST MALL,,,,STATEN ISLAND,10301,TRIANGLE/PLAZA,"STREETSCAPES, PLAZAS, AND MALLS",PARKS AND PLAZAS,"PARKS, GARDENS, AND HISTORICAL SITES",Local,NYC Department of Parks and Recreation,NYCDPR,Public,NYC Department of Parks and Recreation,NYCDPR,City,0,,STATEN ISLAND,0,0,958917.717,169162.2942,501,SI35,SI0104,49,7500,7500,5,31,120,dpr_parksproperties,2880f5b017497feb8fae193b5bd286fe
383,,,,,,,,,,,,,,,,,,,,,,40.50953037,-74.24410519,,0101000020E6100000B2C60B659F8F52C0D7D3B20538414440,0101000020110F000019523CF41B875FC107CE49D179D85241,TOTTENVILLE LIBRARY,7430,AMBOY ROAD,7430 AMBOY ROAD,STATEN ISLAND,10307,PUBLIC LIBRARY,PUBLIC LIBRARIES,LIBRARIES,LIBRARIES AND CULTURAL PROGRAMS,Local,New York Public Library,NYPL,Public,New York Public Library,NYPL,City,0,,STATEN ISLAND,5088113,5078990009,916371.0216,125006.888,503,SI11,SI0305,51,24401,24401,5,31,123,nypl_libraries,2910312e16b47bbaf78c921f7cf0a00c
384,,,,,,,,,,,,,,,,,,,,,,40.59666529,-74.11986246,,0101000020E610000079F466CDAB8752C007082D425F4C4440,0101000020110F0000327CAB4B9A795FC19F8E9E5EF1E45241,TODT HILL WOODS,,,,STATEN ISLAND,10314,STATE FOREST,PRESERVES AND CONSERVATION AREAS,PARKS AND PLAZAS,"PARKS, GARDENS, AND HISTORICAL SITES",Regional,NYS Department of Environmental Conservation,NYSDEC,Public,NYS Department of Environmental Conservation,NYSDEC,State,0,,STATEN ISLAND,0,5009240001,950962.9332,156680.4333,502,SI24,SI0203,50,18100,18100,5,31,122,nysdec_lands,2acebc4b7041d2cebafbaaf23a2db675
385,,,,,,,,,,,,,,,,,,,,,,40.52543495,-74.18494128,,0101000020E6100000C6E3B00DD68B52C093E0F22E41434440,0101000020110F00000D21306EAD805FC1C7345B0EC0DA5241,KINGDOM POND PARK,,,,STATEN ISLAND,10312,NATURE AREA,PRESERVES AND CONSERVATION AREAS,PARKS AND PLAZAS,"PARKS, GARDENS, AND HISTORICAL SITES",Regional,NYC Department of Parks and Recreation,NYCDPR,Public,NYC Department of Parks and Recreation,NYCDPR,City,0,,STATEN ISLAND,0,0,932835.0928,130760.9905,503,SI01,SI0304,51,17600,17600,5,31,123,dpr_parksproperties,2ea0e819d7c87fea97c7353cb4a20996
386,,,,,,,,,,,,,,,,,,,,,,40.60497656,-74.0790186,,0101000020E6100000E8CDE69D0E8552C0E9392D9A6F4D4440,0101000020110F0000A7E7D89D29755FC13ABF780222E65241,BRADYS POND PARK,,,,STATEN ISLAND,10305,NATURE AREA,PRESERVES AND CONSERVATION AREAS,PARKS AND PLAZAS,"PARKS, GARDENS, AND HISTORICAL SITES",Regional,NYC Department of Parks and Recreation,NYCDPR,Public,NYC Department of Parks and Recreation,NYCDPR,City,0,,STATEN ISLAND,0,5030320001,962308.4299,159695.5666,502,SI14,SI0201,50,5000,5000,5,31,122,dpr_parksproperties,301f43b461ce090f1be0ed1b65edcb7f
387,,,,,,,,,,,,,,,,,,,,,,40.54703087,-74.15179769,,0101000020E61000005A396B07B78952C071C995D604464440,0101000020110F00005B3E750C137D5FC152CB9ADDD6DD5241,GREAT KILLS VETERANS PLAYGROUND,,,,STATEN ISLAND,10308,JOINTLY OPERATED PLAYGROUND,RECREATION AND WATERFRONT SITES,PARKS AND PLAZAS,"PARKS, GARDENS, AND HISTORICAL SITES",Local,NYC Department of Parks and Recreation,NYCDPR,Public,NYC Department of Parks and Recreation,NYCDPR,City,0,,STATEN ISLAND,0,5052450001,942062.8568,138611.1699,503,SI54,SI0302,51,15601,15601,5,31,122,dpr_parksproperties,30654d15e07c736ebbf4ce3c01e3d430
388,,,,,,,,,,,,,,,,,,,,,,40.5911601,-74.13105937,,0101000020E610000058FE9D40638852C0B16B48DDAA4B4440,0101000020110F000062976AE7D17A5FC15813A29A27E45241,BLOOD ROOT VALLEY,411,ROCKLAND AVENUE,411 ROCKLAND AVENUE,STATEN ISLAND,10314,NATURE AREA,PRESERVES AND CONSERVATION AREAS,PARKS AND PLAZAS,"PARKS, GARDENS, AND HISTORICAL SITES",Regional,NYC Department of Parks and Recreation,NYCDPR,Public,NYC Department of Parks and Recreation,NYCDPR,City,0,,STATEN ISLAND,0,5009550100,947850.4357,154679.2076,502,SI24,SI0203,50,18100,18100,5,31,122,dpr_parksproperties,30dd1154db18227a8cfd72ccf33f4294
389,,,,,,,,,,,,,,,,,,,,,,40.62827922,-74.11756786,,0101000020E6100000E86D2035868752C0F454FD2E6B504440,0101000020110F00004E95DE6F5A795FC15543ED5778E95241,PRALL PLAYGROUND,880,FOREST AVENUE,880 FOREST AVENUE,STATEN ISLAND,10310,JOINTLY OPERATED PLAYGROUND,RECREATION AND WATERFRONT SITES,PARKS AND PLAZAS,"PARKS, GARDENS, AND HISTORICAL SITES",Local,NYC Department of Parks and Recreation,NYCDPR,Public,NYC Department of Parks and Recreation,NYCDPR,City,0,,STATEN ISLAND,5008403,5003080001,951615.627,168197.3387,501,SI22,SI0104,49,12500,12500,5,31,120,dpr_parksproperties,39e69587ffd2f6f20232f0e54fe019c3
390,,,,,,,,,,,,,,,,,,,,,,40.54846167,-74.17394668,,0101000020E61000008863FAEA218B52C0EF89FBB833464440,0101000020110F0000932BB5737B7F5FC1CAD0AD440BDE5241,LAREDO AVENUE PARCEL,,,,STATEN ISLAND,10312,NATURE AREA,PRESERVES AND CONSERVATION AREAS,PARKS AND PLAZAS,"PARKS, GARDENS, AND HISTORICAL SITES",Regional,NYC Department of Parks and Recreation,NYCDPR,Public,NYC Department of Parks and Recreation,NYCDPR,City,0,,STATEN ISLAND,0,5056320004,935908.321,139143.8872,503,SI01,SI0302,51,17011,17011,5,31,123,dpr_parksproperties,3a16ca6499194d907a32a5b9f0b8dba4
